{
"type": "FeatureCollection",
"name": "D:\\notlar\\_Business_\\ClimEra\\KARBON SAYACI PROJE\\alman\\topografya.geojson",
"features": [
{ "type": "Feature", "properties": { "ELEVATION": "1 ft" }, "geometry": { "type": "LineString", "coordinates": [ [ 421127.259614063310437, 4556133.734857519157231, 0.999999940395355 ], [ 421158.194092771271244, 4556129.34788837376982, 0.999999940395355 ] ] } },
{ "type": "Feature", "properties": { "ELEVATION": "2 ft" }, "geometry": { "type": "LineString", "coordinates": [ [ 421115.535055842250586, 4556133.734857519157231, 1.99999988079071 ], [ 421158.194092771271244, 4556124.960919229313731, 1.99999988079071 ] ] } },
{ "type": "Feature", "properties": { "ELEVATION": "3 ft" }, "geometry": { "type": "LineString", "coordinates": [ [ 421110.325776714948006, 4556133.734857519157231, 3.0 ], [ 421158.194092771271244, 4556120.573949655517936, 3.0 ] ] } },
{ "type": "Feature", "properties": { "ELEVATION": "4 ft" }, "geometry": { "type": "LineString", "coordinates": [ [ 421105.1164986063377, 4556133.734857519157231, 3.999999761581421 ], [ 421158.194092771271244, 4556116.186980939470232, 3.999999761581421 ] ] } },
{ "type": "Feature", "properties": { "ELEVATION": "5 ft" }, "geometry": { "type": "LineString", "coordinates": [ [ 421099.90721947903512, 4556133.734857519157231, 5.0 ], [ 421109.847717809840105, 4556126.104397248476744, 5.0 ], [ 421158.194092771271244, 4556111.800011365674436, 5.0 ] ] } },
{ "type": "Feature", "properties": { "ELEVATION": "6 ft" }, "geometry": { "type": "LineString", "coordinates": [ [ 421094.697940351732541, 4556133.734857519157231, 6.0 ], [ 421107.291548038367182, 4556124.06783480849117, 6.0 ], [ 421158.194092771271244, 4556107.413041791878641, 6.0 ] ] } },
{ "type": "Feature", "properties": { "ELEVATION": "7 ft" }, "geometry": { "type": "LineString", "coordinates": [ [ 421089.488661224429961, 4556133.734857519157231, 7.0 ], [ 421104.735378266836051, 4556122.031272368505597, 7.0 ], [ 421158.194092771271244, 4556103.026072218082845, 7.0 ] ] } },
{ "type": "Feature", "properties": { "ELEVATION": "8 ft" }, "geometry": { "type": "LineString", "coordinates": [ [ 421084.279384134511929, 4556133.734857519157231, 7.999999523162842 ], [ 421102.179209495079704, 4556119.994710724800825, 7.999999523162842 ], [ 421158.194092771271244, 4556098.639104359783232, 7.999999523162842 ] ] } },
{ "type": "Feature", "properties": { "ELEVATION": "9 ft" }, "geometry": { "type": "LineString", "coordinates": [ [ 421077.976687794493046, 4556133.734857519157231, 9.0 ], [ 421158.194092771271244, 4556093.867009525187314, 9.0 ] ] } },
{ "type": "Feature", "properties": { "ELEVATION": "10 ft" }, "geometry": { "type": "LineString", "coordinates": [ [ 421069.175645440758672, 4556133.734857519157231, 10.0 ], [ 421158.194092771271244, 4556089.060110962949693, 10.0 ] ] } },
{ "type": "Feature", "properties": { "ELEVATION": "11 ft" }, "geometry": { "type": "LineString", "coordinates": [ [ 421060.374596202746034, 4556133.734857519157231, 11.0 ], [ 421158.194092771271244, 4556084.253208640962839, 11.0 ] ] } },
{ "type": "Feature", "properties": { "ELEVATION": "12 ft" }, "geometry": { "type": "LineString", "coordinates": [ [ 421051.57355384901166, 4556133.734857519157231, 12.0 ], [ 421158.194092771271244, 4556079.446310078725219, 12.0 ] ] } },
{ "type": "Feature", "properties": { "ELEVATION": "13 ft" }, "geometry": { "type": "LineString", "coordinates": [ [ 421042.772511495219078, 4556133.734857519157231, 13.0 ], [ 421158.194092771271244, 4556074.639411516487598, 13.0 ] ] } },
{ "type": "Feature", "properties": { "ELEVATION": "14 ft" }, "geometry": { "type": "LineString", "coordinates": [ [ 421036.268458308884874, 4556133.734857519157231, 14.0 ], [ 421109.04895583569305, 4556089.958926, 14.0 ], [ 421158.194092771271244, 4556069.832509194500744, 14.0 ] ] } },
{ "type": "Feature", "properties": { "ELEVATION": "15 ft" }, "geometry": { "type": "LineString", "coordinates": [ [ 421030.021426018327475, 4556133.734857519157231, 15.0 ], [ 421103.603742300590966, 4556085.609019131399691, 15.0 ], [ 421158.194092771271244, 4556065.025610633194447, 15.0 ] ] } },
{ "type": "Feature", "properties": { "ELEVATION": "16 ft" }, "geometry": { "type": "LineString", "coordinates": [ [ 421023.774393727711868, 4556133.734857519157231, 15.999999046325684 ], [ 421073.167267495125998, 4556104.98653703276068, 15.999999046325684 ], [ 421098.158528765547089, 4556081.259112263098359, 15.999999046325684 ], [ 421158.194092771271244, 4556061.811065589077771, 15.999999046325684 ] ] } },
{ "type": "Feature", "properties": { "ELEVATION": "17 ft" }, "geometry": { "type": "LineString", "coordinates": [ [ 421017.527351664088201, 4556133.734857519157231, 17.0 ], [ 421070.226474546652753, 4556099.602677721530199, 17.0 ], [ 421093.357705282454845, 4556071.299329505302012, 17.0 ], [ 421158.194092771271244, 4556059.951088855043054, 17.0 ] ] } },
{ "type": "Feature", "properties": { "ELEVATION": "18 ft" }, "geometry": { "type": "LineString", "coordinates": [ [ 421011.280319373530801, 4556133.734857519157231, 18.0 ], [ 421065.463505548366811, 4556097.292248148471117, 18.0 ], [ 421079.595610629883595, 4556063.920695547945797, 18.0 ], [ 421125.312656726571731, 4556065.702401753515005, 18.0 ], [ 421158.194092771271244, 4556058.091115031391382, 18.0 ] ] } },
{ "type": "Feature", "properties": { "ELEVATION": "19 ft" }, "geometry": { "type": "LineString", "coordinates": [ [ 421005.033287082915194, 4556133.734857519157231, 19.0 ], [ 421060.666613274021074, 4556095.73367409221828, 19.0 ], [ 421078.583951657754369, 4556061.353456044569612, 19.0 ], [ 421123.409328145498876, 4556063.295544459484518, 19.0 ], [ 421158.194092771271244, 4556056.231141206808388, 19.0 ] ] } },
{ "type": "Feature", "properties": { "ELEVATION": "20 ft" }, "geometry": { "type": "LineString", "coordinates": [ [ 421000.343614413111936, 4556133.734857519157231, 20.0 ], [ 421055.869720999733545, 4556094.175100036896765, 20.0 ], [ 421076.639973048237152, 4556058.547734702937305, 20.0 ], [ 421158.194092771271244, 4556054.371167383156717, 20.0 ] ] } },
{ "type": "Feature", "properties": { "ELEVATION": "21 ft" }, "geometry": { "type": "LineString", "coordinates": [ [ 420996.342655697604641, 4556133.734857519157231, 21.0 ], [ 421051.072828725446016, 4556092.616525980643928, 21.0 ], [ 421073.448075282387435, 4556055.42280303593725, 21.0 ], [ 421158.194092771271244, 4556052.511193558573723, 21.0 ] ] } },
{ "type": "Feature", "properties": { "ELEVATION": "22 ft" }, "geometry": { "type": "LineString", "coordinates": [ [ 420992.341690722852945, 4556133.734857519157231, 22.0 ], [ 421047.749728359398432, 4556090.164123558439314, 22.0 ], [ 421070.256172523135319, 4556052.297866480425, 22.0 ], [ 421083.773280482098926, 4556047.91557699162513, 22.0 ], [ 421121.095027759321965, 4556052.991583498194814, 22.0 ], [ 421158.194092771271244, 4556050.651216824539006, 22.0 ] ] } },
{ "type": "Feature", "properties": { "ELEVATION": "23 ft" }, "geometry": { "type": "LineString", "coordinates": [ [ 420988.34073200734565, 4556133.734857519157231, 23.0 ], [ 421045.458439336158335, 4556087.085957940667868, 23.0 ], [ 421067.064274757285602, 4556049.172934813424945, 23.0 ], [ 421081.419667869980913, 4556044.162487974390388, 23.0 ], [ 421158.194092771271244, 4556048.79124299995601, 23.0 ] ] } },
{ "type": "Feature", "properties": { "ELEVATION": "24 ft" }, "geometry": { "type": "LineString", "coordinates": [ [ 420984.339773291838355, 4556133.734857519157231, 24.0 ], [ 421043.167150312860031, 4556084.007792323827744, 24.0 ], [ 421063.872376991494093, 4556046.048003144562244, 24.0 ], [ 421096.04956889944151, 4556040.397426755167544, 24.0 ], [ 421117.700947961653583, 4556046.3775839144364, 24.0 ], [ 421158.194092771271244, 4556046.93126917630434, 24.0 ] ] } },
{ "type": "Feature", "properties": { "ELEVATION": "25 ft" }, "geometry": { "type": "LineString", "coordinates": [ [ 420980.33881457633106, 4556133.734857519157231, 25.0 ], [ 421040.875861289678141, 4556080.929626706056297, 25.0 ], [ 421060.680479225702584, 4556042.923071477562189, 25.0 ], [ 421092.968183114368003, 4556036.190706895664334, 25.0 ], [ 421116.003908062877599, 4556043.070584123954177, 25.0 ], [ 421158.194092771271244, 4556045.071295351721346, 25.0 ] ] } },
{ "type": "Feature", "properties": { "ELEVATION": "26 ft" }, "geometry": { "type": "LineString", "coordinates": [ [ 420976.337855860765558, 4556133.734857519157231, 26.0 ], [ 421038.584572266379837, 4556077.851461090147495, 26.0 ], [ 421056.802679294487461, 4556039.858793676830828, 26.0 ], [ 421076.272765055065975, 4556027.456898869946599, 26.0 ], [ 421114.484800568199717, 4556039.840979122556746, 26.0 ], [ 421158.194092771271244, 4556043.211321527138352, 26.0 ] ] } },
{ "type": "Feature", "properties": { "ELEVATION": "27 ft" }, "geometry": { "type": "LineString", "coordinates": [ [ 420972.336897145258263, 4556133.734857519157231, 26.999998092651367 ], [ 421043.725732980412431, 4556065.625581526197493, 26.999998092651367 ], [ 421043.804087572789285, 4556026.500095071271062, 26.999998092651367 ], [ 421067.336489950539544, 4556024.430899852886796, 26.999998092651367 ], [ 421115.352054890128784, 4556037.649363658390939, 26.999998092651367 ], [ 421158.194092771271244, 4556041.351347703486681, 26.999998092651367 ] ] } },
{ "type": "Feature", "properties": { "ELEVATION": "28 ft" }, "geometry": { "type": "LineString", "coordinates": [ [ 420968.335932170564774, 4556133.734857519157231, 28.0 ], [ 420987.988526015949901, 4556119.427357852458954, 28.0 ], [ 421009.890176767483354, 4556089.173462057486176, 28.0 ], [ 421041.47413547988981, 4556064.797117838636041, 28.0 ], [ 421033.330905783281196, 4556033.2021524598822, 28.0 ], [ 421038.495249445841182, 4556024.859380257315934, 28.0 ], [ 421065.432080495054834, 4556020.603653823956847, 28.0 ], [ 421116.219310568820219, 4556035.457744766026735, 28.0 ], [ 421158.194092771271244, 4556039.491370969451964, 28.0 ] ] } },
{ "type": "Feature", "properties": { "ELEVATION": "29 ft" }, "geometry": { "type": "LineString", "coordinates": [ [ 420964.326205057208426, 4556133.734857519157231, 29.000001907348633 ], [ 420984.632973605999723, 4556117.489456240087748, 29.000001907348633 ], [ 421028.438646880269516, 4556063.33544269297272, 29.000001907348633 ], [ 421025.299245948845055, 4556034.132430300116539, 29.000001907348633 ], [ 421032.782005471293814, 4556022.793259613215923, 29.000001907348633 ], [ 421063.527671039686538, 4556016.776407793164253, 29.000001907348633 ], [ 421117.08656624739524, 4556033.266125872731209, 29.000001907348633 ], [ 421158.194092771271244, 4556037.631394235417247, 29.000001907348633 ] ] } },
{ "type": "Feature", "properties": { "ELEVATION": "30 ft" }, "geometry": { "type": "LineString", "coordinates": [ [ 420957.767780387192033, 4556133.734857519157231, 30.0 ], [ 420983.317457005206961, 4556116.244753790087998, 30.0 ], [ 421012.071208325854968, 4556070.18649344984442, 30.0 ], [ 421016.113408589269966, 4556057.136225435882807, 30.0 ], [ 421004.857765544147696, 4556025.556002, 30.0 ], [ 421011.473814133321866, 4556021.065572435967624, 30.0 ], [ 421042.365342147066258, 4556012.344816667027771, 30.0 ], [ 421061.623267542745452, 4556012.949173738248646, 30.0 ], [ 421117.953819212561939, 4556031.074513837695122, 30.0 ], [ 421158.194092771271244, 4556035.771423320285976, 30.0 ] ] } },
{ "type": "Feature", "properties": { "ELEVATION": "31 ft" }, "geometry": { "type": "LineString", "coordinates": [ [ 420951.209335196763277, 4556133.734857519157231, 31.0 ], [ 420982.001936288434081, 4556115.000047445297241, 31.0 ], [ 420997.992100033443421, 4556090.257583972997963, 31.0 ], [ 421011.127471164683811, 4556057.914923774078488, 31.0 ], [ 421003.104887547611725, 4556032.973712142556906, 31.0 ], [ 421010.101962658867706, 4556017.110557580366731, 31.0 ], [ 421040.406569833867252, 4556007.598961398005486, 31.0 ], [ 421059.718858087318949, 4556009.121927708387375, 31.0 ], [ 421118.821074891195167, 4556028.882894945330918, 31.0 ], [ 421158.194092771271244, 4556033.911446586251259, 31.0 ] ] } },
{ "type": "Feature", "properties": { "ELEVATION": "32 ft" }, "geometry": { "type": "LineString", "coordinates": [ [ 420944.650910526688676, 4556133.734857519157231, 31.999998092651367 ], [ 420967.610628031368833, 4556125.618424993008375, 31.999998092651367 ], [ 420989.810857622884214, 4556100.307791816070676, 31.999998092651367 ], [ 421004.904261435032822, 4556066.816805612295866, 31.999998092651367 ], [ 421002.051829894538969, 4556023.431024602614343, 31.999998092651367 ], [ 421021.060084298136644, 4556006.484028309583664, 31.999998092651367 ], [ 421057.51909939449979, 4556005.21128074452281, 31.999998092651367 ], [ 421120.075167728413362, 4556026.945638843812048, 31.999998092651367 ], [ 421158.194092771271244, 4556032.051475672051311, 31.999998092651367 ] ] } },
{ "type": "Feature", "properties": { "ELEVATION": "33 ft" }, "geometry": { "type": "LineString", "coordinates": [ [ 420938.092465336318128, 4556133.734857519157231, 33.0 ], [ 420967.090987175528426, 4556123.808654393069446, 33.0 ], [ 420988.250626276014373, 4556099.026612188667059, 33.0 ], [ 420999.001277407980524, 4556068.134762326255441, 33.0 ], [ 421000.58793172246078, 4556022.044966116547585, 33.0 ], [ 421018.598082768381573, 4556001.975261316634715, 33.0 ], [ 421054.641920069698244, 4556001.109309347346425, 33.0 ], [ 421122.216503487434238, 4556025.591756317764521, 33.0 ], [ 421158.194092771271244, 4556030.191498938016593, 33.0 ] ] } },
{ "type": "Feature", "properties": { "ELEVATION": "34 ft" }, "geometry": { "type": "LineString", "coordinates": [ [ 420931.534020145889372, 4556133.734857519157231, 34.0 ], [ 420966.571346319688018, 4556121.998883792199194, 34.0 ], [ 420986.536904412496369, 4556098.233068138360977, 34.0 ], [ 420996.965961212932598, 4556067.41100874170661, 34.0 ], [ 420998.950278613541741, 4556019.736155888065696, 34.0 ], [ 421013.565933905891143, 4555998.549751625396311, 34.0 ], [ 421044.541942259005737, 4555993.121511665172875, 34.0 ], [ 421124.357839246513322, 4556024.237873791716993, 34.0 ], [ 421158.194092771271244, 4556028.331522203981876, 34.0 ] ] } },
{ "type": "Feature", "properties": { "ELEVATION": "35 ft" }, "geometry": { "type": "LineString", "coordinates": [ [ 420925.241089434770402, 4556133.734857519157231, 35.0 ], [ 420964.366380793391727, 4556119.302723304368556, 35.0 ], [ 420984.823187910893466, 4556097.439526570960879, 35.0 ], [ 420994.930651385919191, 4556066.687257420271635, 35.0 ], [ 420997.312630628584884, 4556017.427352881990373, 35.0 ], [ 421007.844253461109474, 4555995.414880805648863, 35.0 ], [ 421042.992337888746988, 4555991.930426285602152, 35.0 ], [ 421125.038002729474101, 4556022.741109821014106, 35.0 ], [ 421158.194092771271244, 4556026.688036455772817, 35.0 ] ] } },
{ "type": "Feature", "properties": { "ELEVATION": "36 ft" }, "geometry": { "type": "LineString", "coordinates": [ [ 420921.565491554851178, 4556133.734857519157231, 36.0 ], [ 420963.626246866770089, 4556117.818778644315898, 36.0 ], [ 420983.109466047317255, 4556096.645982520654798, 36.0 ], [ 420992.895335190754849, 4556065.963503835722804, 36.0 ], [ 420995.635931443597656, 4556016.007156945765018, 36.0 ], [ 421004.840343315387145, 4555993.391643084585667, 36.0 ], [ 421042.542383723135572, 4555990.595887204632163, 36.0 ], [ 421124.108998276118655, 4556021.086982302367687, 36.0 ], [ 421158.194092771271244, 4556025.282958962954581, 36.0 ] ] } },
{ "type": "Feature", "properties": { "ELEVATION": "37 ft" }, "geometry": { "type": "LineString", "coordinates": [ [ 420917.889905175252352, 4556133.734857519157231, 37.0 ], [ 420950.246310794609599, 4556123.870184741914272, 37.0 ], [ 420974.108824335620739, 4556107.531821065582335, 37.0 ], [ 420987.214012823824305, 4556082.142496986314654, 37.0 ], [ 420997.78912584471982, 4555999.731725818477571, 37.0 ], [ 421012.295983421208803, 4555987.856610337272286, 37.0 ], [ 421042.777474027650896, 4555989.171988448128104, 37.0 ], [ 421123.179996729537379, 4556019.432859959080815, 37.0 ], [ 421158.194092771271244, 4556023.877885865978897, 37.0 ] ] } },
{ "type": "Feature", "properties": { "ELEVATION": "38 ft" }, "geometry": { "type": "LineString", "coordinates": [ [ 420914.214307295333128, 4556133.734857519157231, 38.0 ], [ 420949.566770048695616, 4556122.565816720947623, 38.0 ], [ 420972.793303618847858, 4556106.287114720791578, 38.0 ], [ 420985.328588094445877, 4556081.200598771683872, 38.0 ], [ 420996.290533640130889, 4555998.973585346713662, 38.0 ], [ 421011.377354078285862, 4555986.103639133274555, 38.0 ], [ 421043.012565067736432, 4555987.748085238039494, 38.0 ], [ 421122.250992276123725, 4556017.778732439503074, 38.0 ], [ 421158.194092771271244, 4556022.47280837316066, 38.0 ] ] } },
{ "type": "Feature", "properties": { "ELEVATION": "39 ft" }, "geometry": { "type": "LineString", "coordinates": [ [ 420910.538709415413905, 4556133.734857519157231, 39.0 ], [ 420948.887229302839842, 4556121.261448698118329, 39.0 ], [ 420971.477782902074978, 4556105.042408376932144, 39.0 ], [ 420983.443163364892825, 4556080.258700557053089, 39.0 ], [ 420994.791941435658373, 4555998.215444875881076, 39.0 ], [ 421010.458724735479336, 4555984.350667927414179, 39.0 ], [ 421043.247656107821967, 4555986.324182026088238, 39.0 ], [ 421121.321987822826486, 4556016.124604919925332, 39.0 ], [ 421158.194092771271244, 4556021.067730880342424, 39.0 ] ] } },
{ "type": "Feature", "properties": { "ELEVATION": "40 ft" }, "geometry": { "type": "LineString", "coordinates": [ [ 420906.863123035815079, 4556133.734857519157231, 40.0 ], [ 420948.207690683135297, 4556119.957084756344557, 40.0 ], [ 420970.162266301224008, 4556103.797705926932395, 40.0 ], [ 420981.557744534686208, 4556079.316805289126933, 40.0 ], [ 420993.293353919929359, 4555997.457306776195765, 40.0 ], [ 421009.540098266850691, 4555982.59770220797509, 40.0 ], [ 421043.482746412337292, 4555984.900283270515501, 40.0 ], [ 421120.392986276187003, 4556014.47048257663846, 40.0 ], [ 421158.194092771271244, 4556019.66265778336674, 40.0 ] ] } },
{ "type": "Feature", "properties": { "ELEVATION": "41 ft" }, "geometry": { "type": "LineString", "coordinates": [ [ 420903.187525155895855, 4556133.734857519157231, 41.0 ], [ 420947.528149937163107, 4556118.652716734446585, 41.0 ], [ 420968.846745584451128, 4556102.55299958307296, 41.0 ], [ 420979.672319805133156, 4556078.374907073564827, 41.0 ], [ 420991.794761715340428, 4555996.699166304431856, 41.0 ], [ 421008.621468924044166, 4555980.844731003046036, 41.0 ], [ 421043.717837452422827, 4555983.476380058564246, 41.0 ], [ 421119.463981822831556, 4556012.816355057060719, 41.0 ], [ 421158.194092771271244, 4556018.257580290548503, 41.0 ] ] } },
{ "type": "Feature", "properties": { "ELEVATION": "42 ft" }, "geometry": { "type": "LineString", "coordinates": [ [ 420899.511938776297029, 4556133.734857519157231, 42.0 ], [ 420946.848611317458563, 4556117.348352793604136, 42.0 ], [ 420967.531228983658366, 4556101.308297134004533, 42.0 ], [ 420977.786900974926539, 4556077.433011805638671, 42.0 ], [ 420990.296174199611414, 4555995.941028204746544, 42.0 ], [ 421007.702842455357313, 4555979.091765282675624, 42.0 ], [ 421043.952927756938152, 4555982.052481302991509, 42.0 ], [ 421118.534980276192073, 4556011.162232713773847, 42.0 ], [ 421158.194092771271244, 4556016.852507193572819, 42.0 ] ] } },
{ "type": "Feature", "properties": { "ELEVATION": "43 ft" }, "geometry": { "type": "LineString", "coordinates": [ [ 420895.836340896377806, 4556133.734857519157231, 43.0 ], [ 420946.16907057154458, 4556116.043984770774841, 43.0 ], [ 420966.215708266827278, 4556100.063590790145099, 43.0 ], [ 420975.90147624531528, 4556076.491113591007888, 43.0 ], [ 420983.728783092577942, 4556009.940814791247249, 43.0 ], [ 420995.664568788197357, 4555984.076583943329751, 43.0 ], [ 421006.784213112550788, 4555977.338794076815248, 43.0 ], [ 421044.188018797081895, 4555980.628578091971576, 43.0 ], [ 421117.605975822894834, 4556009.508105194196105, 43.0 ], [ 421158.194092771271244, 4556015.447429700754583, 43.0 ] ] } },
{ "type": "Feature", "properties": { "ELEVATION": "44 ft" }, "geometry": { "type": "LineString", "coordinates": [ [ 420892.160743016400374, 4556133.734857519157231, 44.0 ], [ 420945.48952982557239, 4556114.73961674887687, 44.0 ], [ 420964.90018754999619, 4556098.818884446285665, 44.0 ], [ 420974.016051515820436, 4556075.549215376377106, 44.0 ], [ 420982.02775961853331, 4556009.0741933202371, 44.0 ], [ 420994.353742098028306, 4555982.745859424583614, 44.0 ], [ 421005.865583769686054, 4555975.585822871886194, 44.0 ], [ 421044.423109837167431, 4555979.20467488002032, 44.0 ], [ 421116.676971369539388, 4556007.853977674618363, 44.0 ], [ 421158.194092771271244, 4556014.042352207936347, 44.0 ] ] } },
{ "type": "Feature", "properties": { "ELEVATION": "45 ft" }, "geometry": { "type": "LineString", "coordinates": [ [ 420888.485156636859756, 4556133.734857519157231, 45.0 ], [ 420927.96098165307194, 4556121.615055153146386, 45.0 ], [ 420963.597997493518051, 4556097.544578100554645, 45.0 ], [ 420972.159919348952826, 4556074.543671655468643, 45.0 ], [ 420980.326741466880776, 4556008.207574562169611, 45.0 ], [ 420993.04291950922925, 4555981.415139069780707, 45.0 ], [ 421004.946957301057409, 4555973.832857151515782, 45.0 ], [ 421044.142492821032647, 4555977.591466546058655, 45.0 ], [ 421116.213085654540919, 4556006.417655514553189, 45.0 ], [ 421158.194092771271244, 4556012.637279110960662, 45.0 ] ] } },
{ "type": "Feature", "properties": { "ELEVATION": "46 ft" }, "geometry": { "type": "LineString", "coordinates": [ [ 420885.508120521437377, 4556133.734857519157231, 46.0 ], [ 420943.759873974951915, 4556112.64422444626689, 46.0 ], [ 420962.502650301845279, 4556095.81077316775918, 46.0 ], [ 420970.758352082688361, 4556072.550210184417665, 46.0 ], [ 420978.625717992894351, 4556007.340953093022108, 46.0 ], [ 420991.732092819060199, 4555980.084414550103247, 46.0 ], [ 421004.028327958192676, 4555972.079885946586728, 46.0 ], [ 421043.076594291022047, 4555975.689986661076546, 46.0 ], [ 421116.457442178914789, 4556005.312978730536997, 46.0 ], [ 421158.194092771271244, 4556011.232201618142426, 46.0 ] ] } },
{ "type": "Feature", "properties": { "ELEVATION": "47 ft" }, "geometry": { "type": "LineString", "coordinates": [ [ 420883.115737379412167, 4556133.734857519157231, 47.0 ], [ 420942.730909867037553, 4556111.823900829069316, 47.0 ], [ 420961.407306537381373, 4556094.076973660849035, 47.0 ], [ 420969.356789201730862, 4556070.556754951365292, 47.0 ], [ 420976.92469984118361, 4556006.474334334023297, 47.0 ], [ 420990.421270230202936, 4555978.753694195300341, 47.0 ], [ 421003.109701489622239, 4555970.326920226216316, 47.0 ], [ 421042.010699096077587, 4555973.788512727245688, 47.0 ], [ 421116.701797938672826, 4556004.20830540265888, 47.0 ], [ 421158.194092771271244, 4556009.827128521166742, 47.0 ] ] } },
{ "type": "Feature", "properties": { "ELEVATION": "48 ft" }, "geometry": { "type": "LineString", "coordinates": [ [ 420880.723346752056386, 4556133.734857519157231, 48.0 ], [ 420941.701942539715674, 4556111.003574644215405, 48.0 ], [ 420960.311959345766809, 4556092.34316872805357, 48.0 ], [ 420975.223676367197186, 4556005.607712863944471, 48.0 ], [ 420989.110443540033884, 4555977.422969676554203, 48.0 ], [ 421002.191072146757506, 4555968.573949021287262, 48.0 ], [ 421040.944800566125195, 4555971.887032841332257, 48.0 ], [ 421116.946154462930281, 4556003.103628618642688, 48.0 ], [ 421158.194092771271244, 4556008.422051028348505, 48.0 ] ] } },
{ "type": "Feature", "properties": { "ELEVATION": "49 ft" }, "geometry": { "type": "LineString", "coordinates": [ [ 420878.330956124642398, 4556133.734857519157231, 49.0 ], [ 420940.672975212335587, 4556110.183248459361494, 49.0 ], [ 420959.216612154094037, 4556090.609363796189427, 49.0 ], [ 420973.522652893210761, 4556004.741091393865645, 49.0 ], [ 420987.799616849864833, 4555976.092245157808065, 49.0 ], [ 421001.272442803892773, 4555966.820977816358209, 49.0 ], [ 421039.878902036114596, 4555969.98555295728147, 49.0 ], [ 421117.190510987187736, 4556001.998951835557818, 49.0 ], [ 421158.194092771271244, 4556007.016973535530269, 49.0 ] ] } },
{ "type": "Feature", "properties": { "ELEVATION": "50 ft" }, "geometry": { "type": "LineString", "coordinates": [ [ 420875.938572982675396, 4556133.734857519157231, 50.0 ], [ 420939.644011104421224, 4556109.362924841232598, 50.0 ], [ 420950.843634400109295, 4556099.182645054534078, 50.0 ], [ 420965.325718959211372, 4556065.938029315322638, 50.0 ], [ 420967.103994982433505, 4556016.809797402471304, 50.0 ], [ 420986.48879426100757, 4555974.761524802073836, 50.0 ], [ 421000.353816335322335, 4555965.068012095987797, 50.0 ], [ 421038.813006841170136, 4555968.084079021587968, 50.0 ], [ 421117.434866746945772, 4556000.894278506748378, 50.0 ], [ 421158.194092771271244, 4556005.611900438554585, 50.0 ] ] } },
{ "type": "Feature", "properties": { "ELEVATION": "51 ft" }, "geometry": { "type": "LineString", "coordinates": [ [ 420873.546182355261408, 4556133.734857519157231, 51.0 ], [ 420938.615043777099345, 4556108.542598657310009, 51.0 ], [ 420949.625140381336678, 4556098.121396734379232, 51.0 ], [ 420964.158834782138001, 4556065.785044900141656, 51.0 ], [ 420963.571201255777851, 4556024.730389318428934, 51.0 ], [ 420975.324111918860581, 4555989.207489956170321, 51.0 ], [ 420983.543309290893376, 4555972.353779141791165, 51.0 ], [ 421001.813137045013718, 4555956.437942596152425, 51.0 ] ] } },
{ "type": "Feature", "properties": { "ELEVATION": "51 ft" }, "geometry": { "type": "LineString", "coordinates": [ [ 421005.420533912023529, 4555956.437942596152425, 51.0 ], [ 421038.379360976046883, 4555965.335064763203263, 51.0 ], [ 421117.679223271203227, 4555999.789601723663509, 51.0 ], [ 421158.194092771271244, 4556004.206822945736349, 51.0 ] ] } },
{ "type": "Feature", "properties": { "ELEVATION": "52 ft" }, "geometry": { "type": "LineString", "coordinates": [ [ 420871.153799213294405, 4556133.734857519157231, 52.0 ], [ 420937.58607966924319, 4556107.722275040112436, 52.0 ], [ 420948.332633515936323, 4556097.364930574782193, 52.0 ], [ 420960.544130854832474, 4556068.341028267517686, 52.0 ], [ 420965.265649285865948, 4556011.886085079982877, 52.0 ], [ 420981.629468315222766, 4555971.556422527879477, 52.0 ], [ 420998.427748067188077, 4555956.437942596152425, 52.0 ] ] } },
{ "type": "Feature", "properties": { "ELEVATION": "52 ft" }, "geometry": { "type": "LineString", "coordinates": [ [ 421011.396053638425656, 4555956.437942596152425, 52.0 ], [ 421117.923579030961264, 4555998.684928395785391, 52.0 ], [ 421158.194092771271244, 4556002.801749848760664, 52.0 ] ] } },
{ "type": "Feature", "properties": { "ELEVATION": "53 ft" }, "geometry": { "type": "LineString", "coordinates": [ [ 420868.761408585880417, 4556133.734857519157231, 53.0 ], [ 420936.557112341804896, 4556106.901948856189847, 53.0 ], [ 420946.981690182234161, 4556096.849069589748979, 53.0 ], [ 420959.124531262787059, 4556067.843584215268493, 53.0 ], [ 420964.346474999678321, 4556009.424225067719817, 53.0 ], [ 420979.71562135143904, 4555970.759063418023288, 53.0 ], [ 420995.04234849702334, 4555956.437942596152425, 53.0 ] ] } },
{ "type": "Feature", "properties": { "ELEVATION": "53 ft" }, "geometry": { "type": "LineString", "coordinates": [ [ 421017.371592061361298, 4555956.437942596152425, 53.0 ], [ 421118.167935555218719, 4555997.580251611769199, 53.0 ], [ 421158.194092771271244, 4556001.396672355942428, 53.0 ] ] } },
{ "type": "Feature", "properties": { "ELEVATION": "54 ft" }, "geometry": { "type": "LineString", "coordinates": [ [ 420866.369025443913415, 4556133.734857519157231, 53.999996185302734 ], [ 420935.528148233890533, 4556106.081625237129629, 53.999996185302734 ], [ 420945.630751075455919, 4556096.333210219629109, 53.999996185302734 ], [ 420957.704936112393625, 4556067.346141719259322, 53.999996185302734 ], [ 420963.427303589414805, 4556006.962372758425772, 53.999996185302734 ], [ 420977.801780375710223, 4555969.9617068041116, 53.999996185302734 ], [ 420991.656959519255906, 4555956.437942596152425, 53.999996185302734 ] ] } },
{ "type": "Feature", "properties": { "ELEVATION": "54 ft" }, "geometry": { "type": "LineString", "coordinates": [ [ 421023.347111787763424, 4555956.437942596152425, 53.999996185302734 ], [ 421118.412291314976756, 4555996.475578283891082, 53.999996185302734 ], [ 421158.194092771271244, 4555999.991599258966744, 53.999996185302734 ] ] } },
{ "type": "Feature", "properties": { "ELEVATION": "55 ft" }, "geometry": { "type": "LineString", "coordinates": [ [ 420863.976627331110649, 4556133.734857519157231, 55.000003814697266 ], [ 420934.499177687102929, 4556105.261296486482024, 55.000003814697266 ], [ 420944.279803514946252, 4556095.817347621545196, 55.000003814697266 ], [ 420956.285332078754436, 4556066.848696110770106, 55.000003814697266 ], [ 420962.508126427186653, 4556004.500505043193698, 55.000003814697266 ], [ 420975.88792742381338, 4555969.164345200173557, 55.000003814697266 ], [ 420988.271549356693868, 4555956.437942596152425, 55.000003814697266 ] ] } },
{ "type": "Feature", "properties": { "ELEVATION": "55 ft" }, "geometry": { "type": "LineString", "coordinates": [ [ 421029.322668907174375, 4555956.437942596152425, 55.000003814697266 ], [ 421118.656648603850044, 4555995.370898043736815, 55.000003814697266 ], [ 421158.194092771271244, 4555998.586517370305955, 55.000003814697266 ] ] } },
{ "type": "Feature", "properties": { "ELEVATION": "56 ft" }, "geometry": { "type": "LineString", "coordinates": [ [ 420861.584244189085439, 4556133.734857519157231, 56.0 ], [ 420933.470213579188567, 4556104.440972868353128, 56.0 ], [ 420942.928864408051595, 4556095.301488250494003, 56.0 ], [ 420954.86573692841921, 4556066.351253615692258, 56.0 ], [ 420961.588955016923137, 4556002.038652733899653, 56.0 ], [ 420973.974086448084563, 4555968.366988585330546, 56.0 ], [ 420984.886160378868226, 4555956.437942596152425, 56.0 ] ] } },
{ "type": "Feature", "properties": { "ELEVATION": "56 ft" }, "geometry": { "type": "LineString", "coordinates": [ [ 421035.298188633576501, 4555956.437942596152425, 56.0 ], [ 421118.901004363608081, 4555994.266224715858698, 56.0 ], [ 421158.194092771271244, 4555997.181444273330271, 56.0 ] ] } },
{ "type": "Feature", "properties": { "ELEVATION": "57 ft" }, "geometry": { "type": "LineString", "coordinates": [ [ 420859.191861047118437, 4556133.734857519157231, 57.0 ], [ 420873.505459481675643, 4556123.950561044737697, 57.0 ], [ 420932.441249471274205, 4556103.620649250224233, 57.0 ], [ 420941.577925301215146, 4556094.785628880374134, 57.0 ], [ 420953.446141778142191, 4556065.853811119683087, 57.0 ], [ 420960.391560893622227, 4556000.023315297439694, 57.0 ], [ 420972.195974139438476, 4555967.084689502604306, 57.0 ], [ 420981.500771401042584, 4555956.437942596152425, 57.0 ] ] } },
{ "type": "Feature", "properties": { "ELEVATION": "57 ft" }, "geometry": { "type": "LineString", "coordinates": [ [ 421041.273708359978627, 4555956.437942596152425, 57.0 ], [ 421119.145360123366117, 4555993.161551388911903, 57.0 ], [ 421158.194092771271244, 4555995.776371176354587, 57.0 ] ] } },
{ "type": "Feature", "properties": { "ELEVATION": "58 ft" }, "geometry": { "type": "LineString", "coordinates": [ [ 420856.79946293431567, 4556133.734857519157231, 58.000003814697266 ], [ 420872.352942032332066, 4556123.103020150214434, 58.000003814697266 ], [ 420931.4122789244866, 4556102.800320499576628, 58.000003814697266 ], [ 420940.226977740589064, 4556094.269766281358898, 58.000003814697266 ], [ 420952.026537744386587, 4556065.356365511193871, 58.000003814697266 ], [ 420958.724220397765748, 4555998.762162118218839, 58.000003814697266 ], [ 420978.115361238480546, 4555956.437942596152425, 58.000003814697266 ] ] } },
{ "type": "Feature", "properties": { "ELEVATION": "58 ft" }, "geometry": { "type": "LineString", "coordinates": [ [ 421043.403926452971064, 4555956.437942596152425, 58.000003814697266 ], [ 421119.389717412181199, 4555992.056871147826314, 58.000003814697266 ], [ 421158.194092771271244, 4555994.371289286762476, 58.000003814697266 ] ] } },
{ "type": "Feature", "properties": { "ELEVATION": "59 ft" }, "geometry": { "type": "LineString", "coordinates": [ [ 420854.407079792348668, 4556133.734857519157231, 59.0 ], [ 420871.200431795034092, 4556122.255484561435878, 59.0 ], [ 420930.383314816572238, 4556101.979996881447732, 59.0 ], [ 420938.876038633810822, 4556093.753906911239028, 59.0 ], [ 420950.606942593993153, 4556064.8589230151847, 59.0 ], [ 420952.849452195921913, 4556013.339557494968176, 59.0 ], [ 420974.729972260713112, 4555956.437942596152425, 59.0 ] ] } },
{ "type": "Feature", "properties": { "ELEVATION": "59 ft" }, "geometry": { "type": "LineString", "coordinates": [ [ 421045.094462098379154, 4555956.437942596152425, 59.0 ], [ 421110.762066533381585, 4555988.044090653769672, 59.0 ], [ 421158.194092771271244, 4555992.966216190718114, 59.0 ] ] } },
{ "type": "Feature", "properties": { "ELEVATION": "60 ft" }, "geometry": { "type": "LineString", "coordinates": [ [ 420852.014696650323458, 4556133.734857519157231, 60.0 ], [ 420870.047921557794325, 4556121.407948970794678, 60.0 ], [ 420929.354350708716083, 4556101.159673264250159, 60.0 ], [ 420937.525099526916165, 4556093.238047541119158, 60.0 ], [ 420949.187347443716135, 4556064.361480519175529, 60.0 ], [ 420951.172853228810709, 4556012.469510154798627, 60.0 ], [ 420971.34458328288747, 4555956.437942596152425, 60.0 ] ] } },
{ "type": "Feature", "properties": { "ELEVATION": "60 ft" }, "geometry": { "type": "LineString", "coordinates": [ [ 421046.784997743787244, 4555956.437942596152425, 60.0 ], [ 421109.699472445994616, 4555986.708172169514, 60.0 ], [ 421158.194092771271244, 4555991.672869939357042, 60.0 ] ] } },
{ "type": "Feature", "properties": { "ELEVATION": "61 ft" }, "geometry": { "type": "LineString", "coordinates": [ [ 420849.622313508356456, 4556133.734857519157231, 60.999996185302734 ], [ 420868.895411320496351, 4556120.560413382016122, 60.999996185302734 ], [ 420918.328331615426578, 4556105.130125912837684, 60.999996185302734 ], [ 420936.174160420196131, 4556092.722188170999289, 60.999996185302734 ], [ 420947.767752293322701, 4556063.864038024097681, 60.999996185302734 ], [ 420949.496254261641297, 4556011.599462813697755, 60.999996185302734 ], [ 420967.959194305120036, 4555956.437942596152425, 60.999996185302734 ] ] } },
{ "type": "Feature", "properties": { "ELEVATION": "61 ft" }, "geometry": { "type": "LineString", "coordinates": [ [ 421048.475533389195334, 4555956.437942596152425, 60.999996185302734 ], [ 421108.636878358665854, 4555985.372253686189651, 60.999996185302734 ], [ 421158.194092771271244, 4555990.734758659265935, 60.999996185302734 ] ] } },
{ "type": "Feature", "properties": { "ELEVATION": "62 ft" }, "geometry": { "type": "LineString", "coordinates": [ [ 420848.041424069320783, 4556133.077790590934455, 62.0 ], [ 420867.905195605882909, 4556119.581459102220833, 62.0 ], [ 420917.727030308451504, 4556104.168019688688219, 62.0 ], [ 420934.823212859570049, 4556092.206325571984053, 62.0 ], [ 420946.348148259567097, 4556063.366592415608466, 62.0 ], [ 420947.819644802890252, 4556010.729410028085113, 62.0 ], [ 420964.573784142557997, 4555956.437942596152425, 62.0 ] ] } },
{ "type": "Feature", "properties": { "ELEVATION": "62 ft" }, "geometry": { "type": "LineString", "coordinates": [ [ 421050.166079613496549, 4555956.437942596152425, 62.0 ], [ 421107.574277621868532, 4555984.03632684238255, 62.0 ], [ 421158.194092771271244, 4555989.796641509048641, 62.0 ] ] } },
{ "type": "Feature", "properties": { "ELEVATION": "63 ft" }, "geometry": { "type": "LineString", "coordinates": [ [ 420848.041424069320783, 4556131.140712291002274, 63.0 ], [ 420867.23116199701326, 4556118.346507852897048, 63.0 ], [ 420917.125732764252461, 4556103.20591948647052, 63.0 ], [ 420933.472273752791807, 4556091.690466201864183, 63.0 ], [ 420944.928553109290078, 4556062.869149919599295, 63.0 ], [ 420946.143045835779049, 4556009.859362686984241, 63.0 ], [ 420962.076975554926321, 4555956.437942596152425, 63.0 ] ] } },
{ "type": "Feature", "properties": { "ELEVATION": "63 ft" }, "geometry": { "type": "LineString", "coordinates": [ [ 421051.85661525890464, 4555956.437942596152425, 63.0 ], [ 421106.511683534481563, 4555982.700408358126879, 63.0 ], [ 421158.194092771271244, 4555988.858530228957534, 63.0 ] ] } },
{ "type": "Feature", "properties": { "ELEVATION": "64 ft" }, "geometry": { "type": "LineString", "coordinates": [ [ 420848.041424069320783, 4556129.203633992001414, 63.999996185302734 ], [ 420866.55712838814361, 4556117.11155660264194, 63.999996185302734 ], [ 420916.524435220053419, 4556102.2438192833215, 63.999996185302734 ], [ 420932.12133464589715, 4556091.174606831744313, 63.999996185302734 ], [ 420943.508957958896644, 4556062.371707423590124, 63.999996185302734 ], [ 420944.466446868726052, 4556008.989315345883369, 63.999996185302734 ], [ 420959.643461275903974, 4555956.437942596152425, 63.999996185302734 ] ] } },
{ "type": "Feature", "properties": { "ELEVATION": "64 ft" }, "geometry": { "type": "LineString", "coordinates": [ [ 421053.54715090431273, 4555956.437942596152425, 63.999996185302734 ], [ 421105.449089447152801, 4555981.36448987480253, 63.999996185302734 ], [ 421158.194092771271244, 4555987.920418948866427, 63.999996185302734 ] ] } },
{ "type": "Feature", "properties": { "ELEVATION": "65 ft" }, "geometry": { "type": "LineString", "coordinates": [ [ 420848.041424069320783, 4556127.266543570905924, 65.0 ], [ 420865.88309056131402, 4556115.876597625203431, 65.0 ], [ 420915.580219289695378, 4556101.356293305754662, 65.0 ], [ 420930.901441493362654, 4556090.431572297587991, 65.0 ], [ 420942.147292699781246, 4556061.808829479850829, 65.0 ], [ 420942.789837410033215, 4556008.119262560270727, 65.0 ], [ 420957.209931768709794, 4555956.437942596152425, 65.0 ] ] } },
{ "type": "Feature", "properties": { "ELEVATION": "65 ft" }, "geometry": { "type": "LineString", "coordinates": [ [ 421055.237697128613945, 4555956.437942596152425, 65.0 ], [ 421104.386488710413687, 4555980.028563030064106, 65.0 ], [ 421158.194092771271244, 4555986.982301798649132, 65.0 ] ] } },
{ "type": "Feature", "properties": { "ELEVATION": "66 ft" }, "geometry": { "type": "LineString", "coordinates": [ [ 420848.041424069320783, 4556125.329465270973742, 66.0 ], [ 420865.209056952444371, 4556114.641646375879645, 66.0 ], [ 420913.818004312750418, 4556100.646680170670152, 66.0 ], [ 420929.994179431872908, 4556089.146635605953634, 66.0 ], [ 420940.923845887242351, 4556061.089869631454349, 66.0 ], [ 420941.113238442805596, 4556007.249215219169855, 66.0 ], [ 420954.776417489687447, 4555956.437942596152425, 66.0 ] ] } },
{ "type": "Feature", "properties": { "ELEVATION": "66 ft" }, "geometry": { "type": "LineString", "coordinates": [ [ 421056.928232774022035, 4555956.437942596152425, 66.0 ], [ 421103.323894623084925, 4555978.692644546739757, 66.0 ], [ 421158.194092771271244, 4555986.044190518558025, 66.0 ] ] } },
{ "type": "Feature", "properties": { "ELEVATION": "67 ft" }, "geometry": { "type": "LineString", "coordinates": [ [ 420848.041424069320783, 4556123.39238697104156, 67.0 ], [ 420864.535023343574721, 4556113.40669512655586, 67.0 ], [ 420912.055789335863665, 4556099.937067036516964, 67.0 ], [ 420929.086917370383162, 4556087.861698915250599, 67.0 ], [ 420939.700399074761663, 4556060.370909782126546, 67.0 ], [ 420939.436639475694392, 4556006.379167879000306, 67.0 ], [ 420952.342903210665099, 4555956.437942596152425, 67.0 ] ] } },
{ "type": "Feature", "properties": { "ELEVATION": "67 ft" }, "geometry": { "type": "LineString", "coordinates": [ [ 421058.618768419430126, 4555956.437942596152425, 67.0 ], [ 421122.694734736636747, 4555983.442192139104009, 67.0 ], [ 421158.194092771271244, 4555985.106079238466918, 67.0 ] ] } },
{ "type": "Feature", "properties": { "ELEVATION": "68 ft" }, "geometry": { "type": "LineString", "coordinates": [ [ 420848.041424069320783, 4556121.45529654994607, 68.0 ], [ 420910.293563331535552, 4556099.227449460886419, 68.0 ], [ 420928.179649631551001, 4556086.576754183508456, 68.0 ], [ 420938.476944606285542, 4556059.65194543544203, 68.0 ], [ 420937.760030017001554, 4556005.509115093387663, 68.0 ], [ 420949.909373703412712, 4555956.437942596152425, 68.0 ] ] } },
{ "type": "Feature", "properties": { "ELEVATION": "68 ft" }, "geometry": { "type": "LineString", "coordinates": [ [ 421060.309314643731341, 4555956.437942596152425, 68.0 ], [ 421122.154401377832983, 4555982.456333844922483, 68.0 ], [ 421158.194092771271244, 4555984.167962088249624, 68.0 ] ] } },
{ "type": "Feature", "properties": { "ELEVATION": "69 ft" }, "geometry": { "type": "LineString", "coordinates": [ [ 420848.041424069320783, 4556119.518218250013888, 69.0 ], [ 420908.531348354648799, 4556098.517836326733232, 69.0 ], [ 420927.272387570061255, 4556085.291817491874099, 69.0 ], [ 420937.253497793804854, 4556058.93298558704555, 69.0 ], [ 420936.083431049832143, 4556004.639067752286792, 69.0 ], [ 420947.475859424390364, 4555956.437942596152425, 69.0 ] ] } },
{ "type": "Feature", "properties": { "ELEVATION": "69 ft" }, "geometry": { "type": "LineString", "coordinates": [ [ 421061.999850289139431, 4555956.437942596152425, 69.0 ], [ 421121.614071400254034, 4555981.470481717959046, 69.0 ], [ 421158.194092771271244, 4555983.229850808158517, 69.0 ] ] } },
{ "type": "Feature", "properties": { "ELEVATION": "70 ft" }, "geometry": { "type": "LineString", "coordinates": [ [ 420848.041424069320783, 4556117.581139951013029, 70.0 ], [ 420906.769133377762046, 4556097.808223190717399, 70.0 ], [ 420926.365125508629717, 4556084.006880801171064, 70.0 ], [ 420936.030050981324166, 4556058.21402573864907, 70.0 ], [ 420934.406832082720939, 4556003.76902041118592, 70.0 ], [ 420945.042345145368017, 4555956.437942596152425, 70.0 ] ] } },
{ "type": "Feature", "properties": { "ELEVATION": "70 ft" }, "geometry": { "type": "LineString", "coordinates": [ [ 421063.690385934605729, 4555956.437942596152425, 70.0 ], [ 421121.073741422675084, 4555980.484629591926932, 70.0 ], [ 421158.194092771271244, 4555982.291739528998733, 70.0 ] ] } },
{ "type": "Feature", "properties": { "ELEVATION": "71 ft" }, "geometry": { "type": "LineString", "coordinates": [ [ 420848.041424069320783, 4556115.644061651080847, 71.0 ], [ 420905.006918400875293, 4556097.098610056564212, 71.0 ], [ 420925.457863447139971, 4556082.72194411046803, 71.0 ], [ 420934.806604168901686, 4556057.49506589025259, 71.0 ], [ 420932.730233115609735, 4556002.898973070085049, 71.0 ], [ 420942.60883086634567, 4555956.437942596152425, 71.0 ] ] } },
{ "type": "Feature", "properties": { "ELEVATION": "71 ft" }, "geometry": { "type": "LineString", "coordinates": [ [ 421065.380921580013819, 4555956.437942596152425, 71.0 ], [ 421120.533411445096135, 4555979.498777465894818, 71.0 ], [ 421158.194092771271244, 4555981.353628248907626, 71.0 ] ] } },
{ "type": "Feature", "properties": { "ELEVATION": "72 ft" }, "geometry": { "type": "LineString", "coordinates": [ [ 420848.041424069320783, 4556113.706971229985356, 72.0 ], [ 420903.244692396488972, 4556096.388992480002344, 72.0 ], [ 420924.55059570830781, 4556081.436999378725886, 72.0 ], [ 420931.378342190466356, 4556069.868769716471434, 72.0 ], [ 420931.053623656800482, 4556002.028920285403728, 72.0 ], [ 420940.175301359093282, 4555956.437942596152425, 72.0 ] ] } },
{ "type": "Feature", "properties": { "ELEVATION": "72 ft" }, "geometry": { "type": "LineString", "coordinates": [ [ 421067.071467804256827, 4555956.437942596152425, 72.0 ], [ 421119.993078086292371, 4555978.51291917078197, 72.0 ], [ 421158.194092771271244, 4555980.415511098690331, 72.0 ] ] } },
{ "type": "Feature", "properties": { "ELEVATION": "73 ft" }, "geometry": { "type": "LineString", "coordinates": [ [ 420848.041424069320783, 4556111.769892930053174, 73.0 ], [ 420901.482477419602219, 4556095.679379345849156, 73.0 ], [ 420923.643333646876272, 4556080.152062687091529, 73.0 ], [ 420930.40670725912787, 4556068.779331736266613, 73.0 ], [ 420930.299018898862414, 4555986.973834835924208, 73.0 ], [ 420937.741787080070935, 4555956.437942596152425, 73.0 ] ] } },
{ "type": "Feature", "properties": { "ELEVATION": "73 ft" }, "geometry": { "type": "LineString", "coordinates": [ [ 421068.762003449723125, 4555956.437942596152425, 73.0 ], [ 421119.452748108713422, 4555977.527067044749856, 73.0 ], [ 421158.194092771271244, 4555979.477399818599224, 73.0 ] ] } },
{ "type": "Feature", "properties": { "ELEVATION": "74 ft" }, "geometry": { "type": "LineString", "coordinates": [ [ 420848.041424069320783, 4556109.832814630120993, 74.0 ], [ 420899.720262442715466, 4556094.969766210764647, 74.0 ], [ 420922.736071585386526, 4556078.867125996388495, 74.0 ], [ 420929.435072327789385, 4556067.689893757924438, 74.0 ], [ 420928.355681097949855, 4555986.364710189402103, 74.0 ], [ 420935.308272801048588, 4555956.437942596152425, 74.0 ] ] } },
{ "type": "Feature", "properties": { "ELEVATION": "74 ft" }, "geometry": { "type": "LineString", "coordinates": [ [ 421070.452539095131215, 4555956.437942596152425, 74.0 ], [ 421118.912418131076265, 4555976.541214918717742, 74.0 ], [ 421158.194092771271244, 4555978.539288538508117, 74.0 ] ] } },
{ "type": "Feature", "properties": { "ELEVATION": "75 ft" }, "geometry": { "type": "LineString", "coordinates": [ [ 420848.041424069320783, 4556107.895724209025502, 75.0 ], [ 420897.958036438387353, 4556094.260148635134101, 75.0 ], [ 420921.828803846554365, 4556077.582181263715029, 75.0 ], [ 420928.463431316311471, 4556066.600448960438371, 75.0 ], [ 420925.51286239764886, 4555998.980208480730653, 75.0 ], [ 420932.8747432937962, 4555956.437942596152425, 75.0 ] ] } },
{ "type": "Feature", "properties": { "ELEVATION": "75 ft" }, "geometry": { "type": "LineString", "coordinates": [ [ 421072.14308531943243, 4555956.437942596152425, 75.0 ], [ 421118.372084772272501, 4555975.555356623604894, 75.0 ], [ 421158.194092771271244, 4555977.601171388290823, 75.0 ] ] } },
{ "type": "Feature", "properties": { "ELEVATION": "76 ft" }, "geometry": { "type": "LineString", "coordinates": [ [ 420848.041424069320783, 4556105.958645910024643, 76.0 ], [ 420896.1958214615006, 4556093.550535500980914, 76.0 ], [ 420927.631741031713318, 4556066.183929350227118, 76.0 ], [ 420924.679275114787742, 4556000.90495874825865, 76.0 ], [ 420930.441229014773853, 4555956.437942596152425, 76.0 ] ] } },
{ "type": "Feature", "properties": { "ELEVATION": "76 ft" }, "geometry": { "type": "LineString", "coordinates": [ [ 421073.83362096484052, 4555956.437942596152425, 76.0 ], [ 421117.831754794693552, 4555974.56950449757278, 76.0 ], [ 421158.194092771271244, 4555976.663060108199716, 76.0 ] ] } },
{ "type": "Feature", "properties": { "ELEVATION": "77 ft" }, "geometry": { "type": "LineString", "coordinates": [ [ 420848.041424069320783, 4556104.021567610092461, 77.0 ], [ 420894.690061301458627, 4556092.406244206242263, 77.0 ], [ 420926.823666214302648, 4556065.880963792093098, 77.0 ], [ 420923.822713489353191, 4555999.454917280934751, 77.0 ], [ 420928.007714735751506, 4555956.437942596152425, 77.0 ] ] } },
{ "type": "Feature", "properties": { "ELEVATION": "77 ft" }, "geometry": { "type": "LineString", "coordinates": [ [ 421075.52415661024861, 4555956.437942596152425, 77.0 ], [ 421117.291424817114603, 4555973.583652371540666, 77.0 ], [ 421158.194092771271244, 4555975.724948828108609, 77.0 ] ] } },
{ "type": "Feature", "properties": { "ELEVATION": "78 ft" }, "geometry": { "type": "LineString", "coordinates": [ [ 420848.041424069320783, 4556102.084477188996971, 78.0 ], [ 420893.22971886448795, 4556091.184948998503387, 78.0 ], [ 420926.015586340217851, 4556065.577996337786317, 78.0 ], [ 420925.577616434311494, 4555956.437942596152425, 78.0 ] ] } },
{ "type": "Feature", "properties": { "ELEVATION": "78 ft" }, "geometry": { "type": "LineString", "coordinates": [ [ 421077.214702834549826, 4555956.437942596152425, 78.0 ], [ 421116.751091458310839, 4555972.597794076427817, 78.0 ], [ 421158.194092771271244, 4555974.786831677891314, 78.0 ] ] } },
{ "type": "Feature", "properties": { "ELEVATION": "79 ft" }, "geometry": { "type": "LineString", "coordinates": [ [ 420848.041424069320783, 4556100.147398889064789, 79.0 ], [ 420891.769385565828998, 4556089.963661434128881, 79.0 ], [ 420925.207511522807181, 4556065.275030779652297, 79.0 ], [ 420924.688656905665994, 4555956.437942596152425, 79.0 ] ] } },
{ "type": "Feature", "properties": { "ELEVATION": "79 ft" }, "geometry": { "type": "LineString", "coordinates": [ [ 421078.905238479957916, 4555956.437942596152425, 79.0 ], [ 421116.21076148073189, 4555971.611941951327026, 79.0 ], [ 421158.194092771271244, 4555973.848720397800207, 79.0 ] ] } },
{ "type": "Feature", "properties": { "ELEVATION": "80 ft" }, "geometry": { "type": "LineString", "coordinates": [ [ 420848.041424069320783, 4556098.23655607085675, 80.0 ], [ 420890.343225258227903, 4556090.988493609242141, 80.0 ], [ 420924.399436705454718, 4556064.972065220586956, 80.0 ], [ 420923.799697376962285, 4555956.437942596152425, 80.0 ] ] } },
{ "type": "Feature", "properties": { "ELEVATION": "80 ft" }, "geometry": { "type": "LineString", "coordinates": [ [ 421080.595774125366006, 4555956.437942596152425, 80.0 ], [ 421115.67043150315294, 4555970.626089823432267, 80.0 ], [ 421158.194092771271244, 4555972.9106091177091, 80.0 ] ] } },
{ "type": "Feature", "properties": { "ELEVATION": "81 ft" }, "geometry": { "type": "LineString", "coordinates": [ [ 420848.041424069320783, 4556097.079479386098683, 81.0 ], [ 420889.898882006062195, 4556089.692043216899037, 81.0 ], [ 420917.13474351959303, 4556065.845730521716177, 81.0 ], [ 420921.588134259451181, 4556053.427057713270187, 81.0 ], [ 420922.910737848316785, 4555956.437942596152425, 81.0 ] ] } },
{ "type": "Feature", "properties": { "ELEVATION": "81 ft" }, "geometry": { "type": "LineString", "coordinates": [ [ 421082.404513802321162, 4555956.437942596152425, 81.0 ], [ 421115.821414366306271, 4555969.952671056613326, 81.0 ], [ 421158.194092771271244, 4555971.972497838549316, 81.0 ] ] } },
{ "type": "Feature", "properties": { "ELEVATION": "82 ft" }, "geometry": { "type": "LineString", "coordinates": [ [ 420848.041424069320783, 4556095.922395461238921, 82.0 ], [ 420889.454535973316524, 4556088.395584712736309, 82.0 ], [ 420915.717298397736158, 4556065.240814499557018, 82.0 ], [ 420920.18868351879064, 4556052.726855176500976, 82.0 ], [ 420922.021772756823339, 4555956.437942596152425, 82.0 ] ] } },
{ "type": "Feature", "properties": { "ELEVATION": "82 ft" }, "geometry": { "type": "LineString", "coordinates": [ [ 421084.217625849880278, 4555956.437942596152425, 82.0 ], [ 421115.997903662559111, 4555969.290775079280138, 82.0 ], [ 421158.194092771271244, 4555971.034380687400699, 82.0 ] ] } },
{ "type": "Feature", "properties": { "ELEVATION": "83 ft" }, "geometry": { "type": "LineString", "coordinates": [ [ 420848.041424069320783, 4556094.765318776480854, 83.0 ], [ 420889.010192721150815, 4556087.099134319461882, 83.0 ], [ 420914.299862145679072, 4556064.635902263224125, 83.0 ], [ 420918.789241535472684, 4556052.026657021604478, 83.0 ], [ 420921.13281322811963, 4555956.437942596152425, 83.0 ] ] } },
{ "type": "Feature", "properties": { "ELEVATION": "83 ft" }, "geometry": { "type": "LineString", "coordinates": [ [ 421086.030726551602129, 4555956.437942596152425, 83.0 ], [ 421116.174391854437999, 4555968.628883243538439, 83.0 ], [ 421158.194092771271244, 4555970.096269408240914, 83.0 ] ] } },
{ "type": "Feature", "properties": { "ELEVATION": "84 ft" }, "geometry": { "type": "LineString", "coordinates": [ [ 420848.041424069320783, 4556093.608242091722786, 84.0 ], [ 420888.565849468985107, 4556085.802683928050101, 84.0 ], [ 420912.882425893680193, 4556064.030990026891232, 84.0 ], [ 420917.38979955209652, 4556051.326458867639303, 84.0 ], [ 420920.24385369947413, 4555956.437942596152425, 84.0 ] ] } },
{ "type": "Feature", "properties": { "ELEVATION": "84 ft" }, "geometry": { "type": "LineString", "coordinates": [ [ 421087.84382725332398, 4555956.437942596152425, 84.0 ], [ 421116.350880046375096, 4555967.966991407796741, 84.0 ], [ 421158.194092771271244, 4555969.158158128149807, 84.0 ] ] } },
{ "type": "Feature", "properties": { "ELEVATION": "85 ft" }, "geometry": { "type": "LineString", "coordinates": [ [ 420848.041424069320783, 4556092.451158165931702, 85.0 ], [ 420888.121503436239436, 4556084.506225422956049, 85.0 ], [ 420911.464980771823321, 4556063.426074004732072, 85.0 ], [ 420915.990348811552394, 4556050.626256329938769, 85.0 ], [ 420919.354888607980683, 4555956.437942596152425, 85.0 ] ] } },
{ "type": "Feature", "properties": { "ELEVATION": "85 ft" }, "geometry": { "type": "LineString", "coordinates": [ [ 421089.656939300883096, 4555956.437942596152425, 85.0 ], [ 421116.527369342627935, 4555967.305095430463552, 85.0 ], [ 421158.194092771271244, 4555968.220040977932513, 85.0 ] ] } },
{ "type": "Feature", "properties": { "ELEVATION": "86 ft" }, "geometry": { "type": "LineString", "coordinates": [ [ 420848.041424069320783, 4556091.294081481173635, 86.0 ], [ 420887.677160184073728, 4556083.209775031544268, 86.0 ], [ 420910.047544519882649, 4556062.821161768399179, 86.0 ], [ 420918.465929079276975, 4555956.437942596152425, 86.0 ] ] } },
{ "type": "Feature", "properties": { "ELEVATION": "86 ft" }, "geometry": { "type": "LineString", "coordinates": [ [ 421091.470040002604946, 4555956.437942596152425, 86.0 ], [ 421116.703857534448616, 4555966.643203593790531, 86.0 ], [ 421158.194092771271244, 4555967.281929697841406, 86.0 ] ] } },
{ "type": "Feature", "properties": { "ELEVATION": "87 ft" }, "geometry": { "type": "LineString", "coordinates": [ [ 420848.041424069320783, 4556090.137004796415567, 87.0 ], [ 420887.232816931908019, 4556081.913324639201164, 87.0 ], [ 420908.630108267767355, 4556062.216249532066286, 87.0 ], [ 420917.576969550631475, 4555956.437942596152425, 87.0 ] ] } },
{ "type": "Feature", "properties": { "ELEVATION": "87 ft" }, "geometry": { "type": "LineString", "coordinates": [ [ 421093.283140704326797, 4555956.437942596152425, 87.0 ], [ 421116.880345726385713, 4555965.98131175711751, 87.0 ], [ 421158.194092771271244, 4555966.343818417750299, 87.0 ] ] } },
{ "type": "Feature", "properties": { "ELEVATION": "88 ft" }, "geometry": { "type": "LineString", "coordinates": [ [ 420848.041424069320783, 4556088.979920870624483, 88.0 ], [ 420886.788470899162348, 4556080.616866135038435, 88.0 ], [ 420907.212663145852275, 4556061.611333509907126, 88.0 ], [ 420916.688004459138028, 4555956.437942596152425, 88.0 ] ] } },
{ "type": "Feature", "properties": { "ELEVATION": "88 ft" }, "geometry": { "type": "LineString", "coordinates": [ [ 421095.096252751885913, 4555956.437942596152425, 88.0 ], [ 421117.056835022638552, 4555965.319415779784322, 88.0 ], [ 421158.194092771271244, 4555965.405701267533004, 88.0 ] ] } },
{ "type": "Feature", "properties": { "ELEVATION": "89 ft" }, "geometry": { "type": "LineString", "coordinates": [ [ 420848.041424069320783, 4556087.822844185866416, 89.0 ], [ 420886.34412764699664, 4556079.320415742695332, 89.0 ], [ 420905.795226893911604, 4556061.006421273574233, 89.0 ], [ 420915.79904493043432, 4555956.437942596152425, 89.0 ] ] } },
{ "type": "Feature", "properties": { "ELEVATION": "89 ft" }, "geometry": { "type": "LineString", "coordinates": [ [ 421096.909353453607764, 4555956.437942596152425, 89.0 ], [ 421117.233323214517441, 4555964.657523944042623, 89.0 ], [ 421158.194092771271244, 4555964.467589987441897, 89.0 ] ] } },
{ "type": "Feature", "properties": { "ELEVATION": "90 ft" }, "geometry": { "type": "LineString", "coordinates": [ [ 420848.041424069320783, 4556086.665767501108348, 90.0 ], [ 420885.899784394830931, 4556078.02396535128355, 90.0 ], [ 420904.377790641912725, 4556060.401509036310017, 90.0 ], [ 420914.91008540178882, 4555956.437942596152425, 90.0 ] ] } },
{ "type": "Feature", "properties": { "ELEVATION": "90 ft" }, "geometry": { "type": "LineString", "coordinates": [ [ 421098.722454155271407, 4555956.437942596152425, 90.0 ], [ 421117.409811406396329, 4555963.995632108300924, 90.0 ], [ 421158.194092771271244, 4555963.529478707350791, 90.0 ] ] } },
{ "type": "Feature", "properties": { "ELEVATION": "91 ft" }, "geometry": { "type": "LineString", "coordinates": [ [ 420848.041424069320783, 4556085.508690816350281, 91.0 ], [ 420885.455441142665222, 4556076.727514958940446, 91.0 ], [ 420902.960354389972053, 4556059.796596799977124, 91.0 ], [ 420914.021125873143319, 4555956.437942596152425, 91.0 ] ] } },
{ "type": "Feature", "properties": { "ELEVATION": "91 ft" }, "geometry": { "type": "LineString", "coordinates": [ [ 421100.535554856993258, 4555956.437942596152425, 91.0 ], [ 421117.586299598333426, 4555963.333740271627903, 91.0 ], [ 421158.194092771271244, 4555962.591367427259684, 91.0 ] ] } },
{ "type": "Feature", "properties": { "ELEVATION": "92 ft" }, "geometry": { "type": "LineString", "coordinates": [ [ 420848.041424069320783, 4556084.351606890559196, 92.0 ], [ 420885.011095109919552, 4556075.431056454777718, 92.0 ], [ 420901.542909267998766, 4556059.191680777817965, 92.0 ], [ 420913.132160781591665, 4555956.437942596152425, 92.0 ] ] } },
{ "type": "Feature", "properties": { "ELEVATION": "92 ft" }, "geometry": { "type": "LineString", "coordinates": [ [ 421102.348666904552374, 4555956.437942596152425, 92.0 ], [ 421117.762788894586265, 4555962.671844294294715, 92.0 ], [ 421158.194092771271244, 4555961.653250277042389, 92.0 ] ] } },
{ "type": "Feature", "properties": { "ELEVATION": "93 ft" }, "geometry": { "type": "LineString", "coordinates": [ [ 420848.041424069320783, 4556083.194530205801129, 93.0 ], [ 420884.566751857753843, 4556074.134606062434614, 93.0 ], [ 420900.125473015999887, 4556058.586768541485071, 93.0 ], [ 420912.243201252946164, 4555956.437942596152425, 93.0 ] ] } },
{ "type": "Feature", "properties": { "ELEVATION": "93 ft" }, "geometry": { "type": "LineString", "coordinates": [ [ 421104.161767606274225, 4555956.437942596152425, 93.0 ], [ 421117.939277086406946, 4555962.009952457621694, 93.0 ], [ 421158.194092771271244, 4555960.715138997882605, 93.0 ] ] } },
{ "type": "Feature", "properties": { "ELEVATION": "94 ft" }, "geometry": { "type": "LineString", "coordinates": [ [ 420848.041424069320783, 4556082.037453521043062, 94.0 ], [ 420884.122408605588134, 4556072.83815567009151, 94.0 ], [ 420898.708036764059216, 4556057.981856305152178, 94.0 ], [ 420911.354241724300664, 4555956.437942596152425, 94.0 ] ] } },
{ "type": "Feature", "properties": { "ELEVATION": "94 ft" }, "geometry": { "type": "LineString", "coordinates": [ [ 421105.974868307996076, 4555956.437942596152425, 94.0 ], [ 421118.115765278344043, 4555961.348060621879995, 94.0 ], [ 421158.194092771271244, 4555959.777027717791498, 94.0 ] ] } },
{ "type": "Feature", "properties": { "ELEVATION": "95 ft" }, "geometry": { "type": "LineString", "coordinates": [ [ 420848.041424069320783, 4556080.8803695961833, 95.0 ], [ 420883.678062572900672, 4556071.541697165928781, 95.0 ], [ 420897.290591642144136, 4556057.376940283924341, 95.0 ], [ 420910.46527663274901, 4555956.437942596152425, 95.0 ] ] } },
{ "type": "Feature", "properties": { "ELEVATION": "95 ft" }, "geometry": { "type": "LineString", "coordinates": [ [ 421107.787980355555192, 4555956.437942596152425, 95.0 ], [ 421118.292254574596882, 4555960.686164644546807, 95.0 ], [ 421158.194092771271244, 4555958.838910567574203, 95.0 ] ] } },
{ "type": "Feature", "properties": { "ELEVATION": "96 ft" }, "geometry": { "type": "LineString", "coordinates": [ [ 420848.041424069320783, 4556079.723292911425233, 96.0 ], [ 420883.233719320734963, 4556070.245246773585677, 96.0 ], [ 420895.873155390145257, 4556056.772028047591448, 96.0 ], [ 420909.576317104103509, 4555956.437942596152425, 96.0 ] ] } },
{ "type": "Feature", "properties": { "ELEVATION": "96 ft" }, "geometry": { "type": "LineString", "coordinates": [ [ 421109.601081057277042, 4555956.437942596152425, 96.0 ], [ 421158.194092771271244, 4555957.900799287483096, 96.0 ] ] } },
{ "type": "Feature", "properties": { "ELEVATION": "97 ft" }, "geometry": { "type": "LineString", "coordinates": [ [ 420848.041424069320783, 4556078.566216226667166, 97.0 ], [ 420882.789376068569254, 4556068.948796381242573, 97.0 ], [ 420894.455719138146378, 4556056.167115810327232, 97.0 ], [ 420908.687357575458009, 4555956.437942596152425, 97.0 ] ] } },
{ "type": "Feature", "properties": { "ELEVATION": "97 ft" }, "geometry": { "type": "LineString", "coordinates": [ [ 421111.414181758998893, 4555956.437942596152425, 97.0 ], [ 421158.194092771271244, 4555956.962688007391989, 97.0 ] ] } },
{ "type": "Feature", "properties": { "ELEVATION": "98 ft" }, "geometry": { "type": "LineString", "coordinates": [ [ 420848.041424069320783, 4556077.409132300876081, 98.0 ], [ 420882.345030035823584, 4556067.652337877079844, 98.0 ], [ 420893.038274016231298, 4556055.562199789099395, 98.0 ], [ 420907.798392483906355, 4555956.437942596152425, 98.0 ] ] } },
{ "type": "Feature", "properties": { "ELEVATION": "98 ft" }, "geometry": { "type": "LineString", "coordinates": [ [ 421113.227293806558009, 4555956.437942596152425, 98.0 ], [ 421153.767148382787127, 4555956.437942596152425, 98.0 ] ] } },
{ "type": "Feature", "properties": { "ELEVATION": "99 ft" }, "geometry": { "type": "LineString", "coordinates": [ [ 420848.041424069320783, 4556076.252055616118014, 99.0 ], [ 420881.900686783657875, 4556066.355887484736741, 99.0 ], [ 420891.620837764232419, 4556054.957287551835179, 99.0 ], [ 420906.909432955260854, 4555956.437942596152425, 99.0 ] ] } },
{ "type": "Feature", "properties": { "ELEVATION": "99 ft" }, "geometry": { "type": "LineString", "coordinates": [ [ 421115.04039450827986, 4555956.437942596152425, 99.0 ], [ 421143.7205823676195, 4555956.437942596152425, 99.0 ] ] } },
{ "type": "Feature", "properties": { "ELEVATION": "100 ft" }, "geometry": { "type": "LineString", "coordinates": [ [ 420848.041424069320783, 4556075.094978931359947, 100.0 ], [ 420881.456343531492166, 4556065.059437092393637, 100.0 ], [ 420890.20340151223354, 4556054.352375315502286, 100.0 ], [ 420906.020473426615354, 4555956.437942596152425, 100.0 ] ] } },
{ "type": "Feature", "properties": { "ELEVATION": "100 ft" }, "geometry": { "type": "LineString", "coordinates": [ [ 421116.853495209943503, 4555956.437942596152425, 100.0 ], [ 421133.674016352451872, 4555956.437942596152425, 100.0 ] ] } },
{ "type": "Feature", "properties": { "ELEVATION": "101 ft" }, "geometry": { "type": "LineString", "coordinates": [ [ 420848.041424069320783, 4556073.937895005568862, 101.0 ], [ 420878.925270613282919, 4556064.601201482117176, 101.0 ], [ 420889.193196974927559, 4556052.281350127421319, 101.0 ], [ 420905.1315083350637, 4555956.437942596152425, 101.0 ] ] } },
{ "type": "Feature", "properties": { "ELEVATION": "101 ft" }, "geometry": { "type": "LineString", "coordinates": [ [ 421118.666607257560827, 4555956.437942596152425, 101.0 ], [ 421123.627387468819506, 4555956.437942596152425, 101.0 ] ] } },
{ "type": "Feature", "properties": { "ELEVATION": "102 ft" }, "geometry": { "type": "LineString", "coordinates": [ [ 420848.041424069320783, 4556072.780818320810795, 102.0 ], [ 420876.273820088652428, 4556064.191329902037978, 102.0 ], [ 420888.206494453421328, 4556050.125750916078687, 102.0 ], [ 420904.242548806418199, 4555956.437942596152425, 102.0 ] ] } },
{ "type": "Feature", "properties": { "ELEVATION": "103 ft" }, "geometry": { "type": "LineString", "coordinates": [ [ 420848.041424069320783, 4556071.623741636052728, 103.0 ], [ 420873.62236956396373, 4556063.781458322890103, 103.0 ], [ 420887.219791931973305, 4556047.970151703804731, 103.0 ], [ 420903.353589277772699, 4555956.437942596152425, 103.0 ] ] } },
{ "type": "Feature", "properties": { "ELEVATION": "104 ft" }, "geometry": { "type": "LineString", "coordinates": [ [ 420848.041424069320783, 4556070.466664951294661, 104.0 ], [ 420870.970919039333239, 4556063.371586743742228, 104.0 ], [ 420886.233089410525281, 4556045.814552491530776, 104.0 ], [ 420902.46462974906899, 4555956.437942596152425, 104.0 ] ] } },
{ "type": "Feature", "properties": { "ELEVATION": "105 ft" }, "geometry": { "type": "LineString", "coordinates": [ [ 420848.041424069320783, 4556069.309588266536593, 104.999992370605469 ], [ 420868.319468514644541, 4556062.961715164594352, 104.999992370605469 ], [ 420885.24638688901905, 4556043.658953279256821, 104.999992370605469 ], [ 420901.57567022042349, 4555956.437942596152425, 104.999992370605469 ] ] } },
{ "type": "Feature", "properties": { "ELEVATION": "106 ft" }, "geometry": { "type": "LineString", "coordinates": [ [ 420848.041424069320783, 4556068.152504340745509, 106.0 ], [ 420865.668001397978514, 4556062.551841020584106, 106.0 ], [ 420884.259678193076979, 4556041.503340578638017, 106.0 ], [ 420900.686705128930043, 4555956.437942596152425, 106.0 ] ] } },
{ "type": "Feature", "properties": { "ELEVATION": "107 ft" }, "geometry": { "type": "LineString", "coordinates": [ [ 420848.041424069320783, 4556066.995420415885746, 107.000007629394531 ], [ 420875.338086836854927, 4556051.100380624644458, 107.000007629394531 ], [ 420887.973647279315628, 4556029.321595191955566, 107.000007629394531 ], [ 420899.797740037378389, 4555956.437942596152425, 107.000007629394531 ] ] } },
{ "type": "Feature", "properties": { "ELEVATION": "108 ft" }, "geometry": { "type": "LineString", "coordinates": [ [ 420848.041424069320783, 4556065.838350971229374, 107.999992370605469 ], [ 420873.904975682846271, 4556049.613573912531137, 107.999992370605469 ], [ 420886.973188624891918, 4556027.771893202327192, 107.999992370605469 ], [ 420898.908786071580835, 4555956.437942596152425, 107.999992370605469 ] ] } },
{ "type": "Feature", "properties": { "ELEVATION": "109 ft" }, "geometry": { "type": "LineString", "coordinates": [ [ 420848.041424069320783, 4556064.681267046369612, 109.0 ], [ 420872.336593528394587, 4556048.65094525180757, 109.0 ], [ 420886.078485612291843, 4556026.257563133724034, 109.0 ], [ 420898.019820980087388, 4555956.437942596152425, 109.0 ] ] } },
{ "type": "Feature", "properties": { "ELEVATION": "110 ft" }, "geometry": { "type": "LineString", "coordinates": [ [ 420848.041424069320783, 4556063.524183120578527, 110.000007629394531 ], [ 420870.67037431767676, 4556048.067501034587622, 110.000007629394531 ], [ 420885.260291370563209, 4556024.768833831883967, 110.000007629394531 ], [ 420897.130855888535734, 4555956.437942596152425, 110.000007629394531 ] ] } },
{ "type": "Feature", "properties": { "ELEVATION": "111 ft" }, "geometry": { "type": "LineString", "coordinates": [ [ 420848.041424069320783, 4556062.247362266294658, 111.0 ], [ 420870.971670323982835, 4556048.909193942323327, 111.0 ], [ 420881.685061311931349, 4556031.841287850402296, 111.0 ], [ 420896.24190192273818, 4555956.437942596152425, 111.0 ] ] } },
{ "type": "Feature", "properties": { "ELEVATION": "112 ft" }, "geometry": { "type": "LineString", "coordinates": [ [ 420848.041424069320783, 4556060.78166083432734, 112.0 ], [ 420870.008406778855715, 4556048.003807961940765, 112.0 ], [ 420880.42203331401106, 4556031.492437355220318, 112.0 ], [ 420895.352936831244733, 4555956.437942596152425, 112.0 ] ] } },
{ "type": "Feature", "properties": { "ELEVATION": "113 ft" }, "geometry": { "type": "LineString", "coordinates": [ [ 420848.041424069320783, 4556059.315959401428699, 113.000007629394531 ], [ 420869.045143233728595, 4556047.098421981558204, 113.000007629394531 ], [ 420879.159005316265393, 4556031.143586860969663, 113.000007629394531 ], [ 420894.463971739693079, 4555956.437942596152425, 113.000007629394531 ] ] } },
{ "type": "Feature", "properties": { "ELEVATION": "114 ft" }, "geometry": { "type": "LineString", "coordinates": [ [ 420848.041424069320783, 4556057.850276312790811, 114.0 ], [ 420868.081891744106542, 4556046.19304733350873, 114.0 ], [ 420877.895993125624955, 4556030.794740732759237, 114.0 ], [ 420893.575017773895524, 4555956.437942596152425, 114.0 ] ] } },
{ "type": "Feature", "properties": { "ELEVATION": "115 ft" }, "geometry": { "type": "LineString", "coordinates": [ [ 420848.041424069320783, 4556056.384574880823493, 115.0 ], [ 420867.11862819903763, 4556045.287661354057491, 115.0 ], [ 420876.632965127704665, 4556030.44589023757726, 115.0 ], [ 420892.686052682402078, 4555956.437942596152425, 115.0 ] ] } },
{ "type": "Feature", "properties": { "ELEVATION": "116 ft" }, "geometry": { "type": "LineString", "coordinates": [ [ 420848.041424069320783, 4556054.918873448856175, 116.000007629394531 ], [ 420866.15536465391051, 4556044.382275373674929, 116.000007629394531 ], [ 420875.369937129958998, 4556030.097039742395282, 116.000007629394531 ], [ 420891.797087590850424, 4555956.437942596152425, 116.000007629394531 ] ] } },
{ "type": "Feature", "properties": { "ELEVATION": "117 ft" }, "geometry": { "type": "LineString", "coordinates": [ [ 420848.041424069320783, 4556053.453190360218287, 117.0 ], [ 420865.192113164288457, 4556043.476900725625455, 117.0 ], [ 420874.10692493931856, 4556029.748193614184856, 117.0 ], [ 420890.908133625052869, 4555956.437942596152425, 117.0 ] ] } },
{ "type": "Feature", "properties": { "ELEVATION": "118 ft" }, "geometry": { "type": "LineString", "coordinates": [ [ 420848.041424069320783, 4556051.987488928250968, 118.0 ], [ 420864.228849619161338, 4556042.571514746174216, 118.0 ], [ 420872.84389694139827, 4556029.399343119934201, 118.0 ], [ 420890.019168533559423, 4555956.437942596152425, 118.0 ] ] } },
{ "type": "Feature", "properties": { "ELEVATION": "119 ft" }, "geometry": { "type": "LineString", "coordinates": [ [ 420848.041424069320783, 4556050.52180583961308, 118.999992370605469 ], [ 420863.265598129597493, 4556041.66614009719342, 118.999992370605469 ], [ 420871.580884750757832, 4556029.050496991723776, 118.999992370605469 ], [ 420889.130214567703661, 4555956.437942596152425, 118.999992370605469 ] ] } },
{ "type": "Feature", "properties": { "ELEVATION": "120 ft" }, "geometry": { "type": "LineString", "coordinates": [ [ 420848.041424069320783, 4556049.056104407645762, 120.0 ], [ 420870.317856752953958, 4556028.701646496541798, 120.0 ], [ 420888.241249476210214, 4555956.437942596152425, 120.0 ] ] } },
{ "type": "Feature", "properties": { "ELEVATION": "121 ft" }, "geometry": { "type": "LineString", "coordinates": [ [ 420848.041424069320783, 4556047.590402974747121, 121.0 ], [ 420861.339071039285045, 4556039.855368138290942, 121.0 ], [ 420875.410336495842785, 4556014.157750031910837, 121.0 ], [ 420887.352284384716768, 4555956.437942596152425, 121.0 ] ] } },
{ "type": "Feature", "properties": { "ELEVATION": "122 ft" }, "geometry": { "type": "LineString", "coordinates": [ [ 420848.041424069320783, 4556046.124719887040555, 121.999992370605469 ], [ 420860.3758195497212, 4556038.949993489310145, 121.999992370605469 ], [ 420874.439102870062925, 4556013.707223442383111, 121.999992370605469 ], [ 420886.530043736740481, 4555956.437942596152425, 121.999992370605469 ] ] } },
{ "type": "Feature", "properties": { "ELEVATION": "123 ft" }, "geometry": { "type": "LineString", "coordinates": [ [ 420848.041424069320783, 4556044.659018454141915, 123.0 ], [ 420859.412556004535872, 4556038.044607509858906, 123.0 ], [ 420873.467857088893652, 4556013.256691212765872, 123.0 ], [ 420885.811901510984171, 4555956.437942596152425, 123.0 ] ] } },
{ "type": "Feature", "properties": { "ELEVATION": "124 ft" }, "geometry": { "type": "LineString", "coordinates": [ [ 420848.041424069320783, 4556043.193317022174597, 124.0 ], [ 420858.449292459408753, 4556037.139221530407667, 124.0 ], [ 420872.496611307782587, 4556012.806158984079957, 124.0 ], [ 420885.093759285227861, 4555956.437942596152425, 124.0 ] ] } },
{ "type": "Feature", "properties": { "ELEVATION": "125 ft" }, "geometry": { "type": "LineString", "coordinates": [ [ 420848.041424069320783, 4556041.727633933536708, 124.999992370605469 ], [ 420857.486040969903115, 4556036.233846881426871, 124.999992370605469 ], [ 420871.525377682002727, 4556012.355632392689586, 124.999992370605469 ], [ 420884.375626047316473, 4555956.437942596152425, 124.999992370605469 ] ] } },
{ "type": "Feature", "properties": { "ELEVATION": "126 ft" }, "geometry": { "type": "LineString", "coordinates": [ [ 420848.041424069320783, 4556040.26193250156939, 126.0 ], [ 420856.522777424717788, 4556035.328460901975632, 126.0 ], [ 420870.554131900833454, 4556011.90510016400367, 126.0 ], [ 420883.657483821560163, 4555956.437942596152425, 126.0 ] ] } },
{ "type": "Feature", "properties": { "ELEVATION": "127 ft" }, "geometry": { "type": "LineString", "coordinates": [ [ 420848.041424069320783, 4556038.796231069602072, 127.000007629394531 ], [ 420869.582886119605973, 4556011.454567934386432, 127.000007629394531 ], [ 420882.939341595862061, 4555956.437942596152425, 127.000007629394531 ] ] } },
{ "type": "Feature", "properties": { "ELEVATION": "128 ft" }, "geometry": { "type": "LineString", "coordinates": [ [ 420848.041424069320783, 4556037.330547980964184, 127.999992370605469 ], [ 420868.611652493884321, 4556011.004041344858706, 127.999992370605469 ], [ 420882.221208357892465, 4555956.437942596152425, 127.999992370605469 ] ] } },
{ "type": "Feature", "properties": { "ELEVATION": "129 ft" }, "geometry": { "type": "LineString", "coordinates": [ [ 420848.041424069320783, 4556035.864846548996866, 129.0 ], [ 420867.640406712773256, 4556010.553509116172791, 129.0 ], [ 420881.503066132136155, 4555956.437942596152425, 129.0 ] ] } },
{ "type": "Feature", "properties": { "ELEVATION": "130 ft" }, "geometry": { "type": "LineString", "coordinates": [ [ 420848.041424069320783, 4556034.399145116098225, 130.0 ], [ 420873.451153025438543, 4555994.149185319431126, 130.0 ], [ 420880.784923906438053, 4555956.437942596152425, 130.0 ] ] } },
{ "type": "Feature", "properties": { "ELEVATION": "131 ft" }, "geometry": { "type": "LineString", "coordinates": [ [ 420848.041424069320783, 4556032.933462028391659, 131.0 ], [ 420872.609600082738325, 4555993.886511837132275, 131.0 ], [ 420880.066790668468457, 4555956.437942596152425, 131.0 ] ] } },
{ "type": "Feature", "properties": { "ELEVATION": "132 ft" }, "geometry": { "type": "LineString", "coordinates": [ [ 420848.041424069320783, 4556031.467760595493019, 132.0 ], [ 420871.768036607536487, 4555993.623835067264736, 132.0 ], [ 420879.348648442770354, 4555956.437942596152425, 132.0 ] ] } },
{ "type": "Feature", "properties": { "ELEVATION": "133 ft" }, "geometry": { "type": "LineString", "coordinates": [ [ 420848.041424069320783, 4556030.002059163525701, 133.0 ], [ 420870.92647313233465, 4555993.361158297397196, 133.0 ], [ 420878.630506217014045, 4555956.437942596152425, 133.0 ] ] } },
{ "type": "Feature", "properties": { "ELEVATION": "134 ft" }, "geometry": { "type": "LineString", "coordinates": [ [ 420848.041424069320783, 4556028.536376074887812, 134.0 ], [ 420870.084920189634431, 4555993.098484816029668, 134.0 ], [ 420877.912372979044449, 4555956.437942596152425, 134.0 ] ] } },
{ "type": "Feature", "properties": { "ELEVATION": "135 ft" }, "geometry": { "type": "LineString", "coordinates": [ [ 420848.041424069320783, 4556027.050552161410451, 135.0 ], [ 420862.82215783308493, 4556008.659688416868448, 135.0 ], [ 420877.194230753346346, 4555956.437942596152425, 135.0 ] ] } },
{ "type": "Feature", "properties": { "ELEVATION": "136 ft" }, "geometry": { "type": "LineString", "coordinates": [ [ 420848.041424069320783, 4556025.481738656759262, 136.0 ], [ 420862.16252521937713, 4556007.911619924940169, 136.0 ], [ 420876.476088527590036, 4555956.437942596152425, 136.0 ] ] } },
{ "type": "Feature", "properties": { "ELEVATION": "137 ft" }, "geometry": { "type": "LineString", "coordinates": [ [ 420848.041424069320783, 4556023.912944787181914, 137.0 ], [ 420861.502900861378293, 4556007.163560795597732, 137.0 ], [ 420875.757955289678648, 4555956.437942596152425, 137.0 ] ] } },
{ "type": "Feature", "properties": { "ELEVATION": "138 ft" }, "geometry": { "type": "LineString", "coordinates": [ [ 420848.041424069320783, 4556022.344131283462048, 138.0 ], [ 420860.843268247786909, 4556006.415492304600775, 138.0 ], [ 420875.039813063922338, 4555956.437942596152425, 138.0 ] ] } },
{ "type": "Feature", "properties": { "ELEVATION": "139 ft" }, "geometry": { "type": "LineString", "coordinates": [ [ 420848.041424069320783, 4556020.775337413884699, 139.0 ], [ 420865.877123878686689, 4555991.785107541829348, 139.0 ], [ 420874.321679825952742, 4555956.437942596152425, 139.0 ] ] } },
{ "type": "Feature", "properties": { "ELEVATION": "140 ft" }, "geometry": { "type": "LineString", "coordinates": [ [ 420848.041424069320783, 4556019.206523910164833, 140.0 ], [ 420865.035560403426643, 4555991.522430771961808, 140.0 ], [ 420873.60353760025464, 4555956.437942596152425, 140.0 ] ] } },
{ "type": "Feature", "properties": { "ELEVATION": "141 ft" }, "geometry": { "type": "LineString", "coordinates": [ [ 420848.041424069320783, 4556017.637710406444967, 141.0 ], [ 420864.193996928283013, 4555991.259754002094269, 141.0 ], [ 420872.88539537449833, 4555956.437942596152425, 141.0 ] ] } },
{ "type": "Feature", "properties": { "ELEVATION": "142 ft" }, "geometry": { "type": "LineString", "coordinates": [ [ 420848.041424069320783, 4556016.068916536867619, 142.0 ], [ 420863.352443985641003, 4555990.997080519795418, 142.0 ], [ 420872.167262136528734, 4555956.437942596152425, 142.0 ] ] } },
{ "type": "Feature", "properties": { "ELEVATION": "143 ft" }, "geometry": { "type": "LineString", "coordinates": [ [ 420848.041424069320783, 4556014.50010303221643, 143.0 ], [ 420862.51088051032275, 4555990.734403749927878, 143.0 ], [ 420871.449119910830632, 4555956.437942596152425, 143.0 ] ] } },
{ "type": "Feature", "properties": { "ELEVATION": "144 ft" }, "geometry": { "type": "LineString", "coordinates": [ [ 420848.041424069320783, 4556012.931289528496563, 144.0 ], [ 420861.669317035237327, 4555990.471726980060339, 144.0 ], [ 420870.730977685074322, 4555956.437942596152425, 144.0 ] ] } },
{ "type": "Feature", "properties": { "ELEVATION": "145 ft" }, "geometry": { "type": "LineString", "coordinates": [ [ 420848.041424069320783, 4556011.362495658919215, 145.0 ], [ 420860.827764092537109, 4555990.209053497761488, 145.0 ], [ 420870.012844447162934, 4555956.437942596152425, 145.0 ] ] } },
{ "type": "Feature", "properties": { "ELEVATION": "146 ft" }, "geometry": { "type": "LineString", "coordinates": [ [ 420848.041424069320783, 4556009.793682155199349, 146.0 ], [ 420859.986200617335271, 4555989.946376728825271, 146.0 ], [ 420869.294702221406624, 4555956.437942596152425, 146.0 ] ] } },
{ "type": "Feature", "properties": { "ELEVATION": "147 ft" }, "geometry": { "type": "LineString", "coordinates": [ [ 420848.041424069320783, 4556008.224868651479483, 147.0 ], [ 420868.576559995650314, 4555956.437942596152425, 147.0 ] ] } },
{ "type": "Feature", "properties": { "ELEVATION": "148 ft" }, "geometry": { "type": "LineString", "coordinates": [ [ 420848.041424069320783, 4556006.656074780970812, 148.0 ], [ 420867.858426757738926, 4555956.437942596152425, 148.0 ] ] } },
{ "type": "Feature", "properties": { "ELEVATION": "149 ft" }, "geometry": { "type": "LineString", "coordinates": [ [ 420848.041424069320783, 4556005.087261277250946, 149.0 ], [ 420867.140284531982616, 4555956.437942596152425, 149.0 ] ] } },
{ "type": "Feature", "properties": { "ELEVATION": "150 ft" }, "geometry": { "type": "LineString", "coordinates": [ [ 420848.041424069320783, 4556003.518447773531079, 150.0 ], [ 420866.422142306284513, 4555956.437942596152425, 150.0 ] ] } },
{ "type": "Feature", "properties": { "ELEVATION": "151 ft" }, "geometry": { "type": "LineString", "coordinates": [ [ 420848.041424069320783, 4556001.949653903953731, 151.0 ], [ 420865.704009068314917, 4555956.437942596152425, 151.0 ] ] } },
{ "type": "Feature", "properties": { "ELEVATION": "152 ft" }, "geometry": { "type": "LineString", "coordinates": [ [ 420848.041424069320783, 4556000.380840400233865, 152.0 ], [ 420864.985866842558607, 4555956.437942596152425, 152.0 ] ] } },
{ "type": "Feature", "properties": { "ELEVATION": "153 ft" }, "geometry": { "type": "LineString", "coordinates": [ [ 420848.041424069320783, 4555998.812026895582676, 153.0 ], [ 420864.267724616860505, 4555956.437942596152425, 153.0 ] ] } },
{ "type": "Feature", "properties": { "ELEVATION": "154 ft" }, "geometry": { "type": "LineString", "coordinates": [ [ 420848.041424069320783, 4555997.243233026005328, 154.0 ], [ 420863.549591378890909, 4555956.437942596152425, 154.0 ] ] } },
{ "type": "Feature", "properties": { "ELEVATION": "155 ft" }, "geometry": { "type": "LineString", "coordinates": [ [ 420848.041424069320783, 4555995.674419522285461, 155.0 ], [ 420862.831449153192807, 4555956.437942596152425, 155.0 ] ] } },
{ "type": "Feature", "properties": { "ELEVATION": "156 ft" }, "geometry": { "type": "LineString", "coordinates": [ [ 420848.041424069320783, 4555994.105606018565595, 156.0 ], [ 420862.113306927436497, 4555956.437942596152425, 156.0 ] ] } },
{ "type": "Feature", "properties": { "ELEVATION": "157 ft" }, "geometry": { "type": "LineString", "coordinates": [ [ 420848.041424069320783, 4555992.536812148988247, 157.0 ], [ 420861.395173689466901, 4555956.437942596152425, 157.0 ] ] } },
{ "type": "Feature", "properties": { "ELEVATION": "158 ft" }, "geometry": { "type": "LineString", "coordinates": [ [ 420848.041424069320783, 4555990.742379161529243, 158.0 ], [ 420860.677031463768799, 4555956.437942596152425, 158.0 ] ] } },
{ "type": "Feature", "properties": { "ELEVATION": "159 ft" }, "geometry": { "type": "LineString", "coordinates": [ [ 420848.041424069320783, 4555988.792693352326751, 159.0 ], [ 420859.958889238012489, 4555956.437942596152425, 159.0 ] ] } },
{ "type": "Feature", "properties": { "ELEVATION": "160 ft" }, "geometry": { "type": "LineString", "coordinates": [ [ 420848.041424069320783, 4555986.843031943775713, 160.0 ], [ 420859.240756000101101, 4555956.437942596152425, 160.0 ] ] } },
{ "type": "Feature", "properties": { "ELEVATION": "161 ft" }, "geometry": { "type": "LineString", "coordinates": [ [ 420848.041424069320783, 4555984.893346134573221, 161.0 ], [ 420858.522613774344791, 4555956.437942596152425, 161.0 ] ] } },
{ "type": "Feature", "properties": { "ELEVATION": "162 ft" }, "geometry": { "type": "LineString", "coordinates": [ [ 420848.041424069320783, 4555982.943684726953506, 162.0 ], [ 420857.804480536375195, 4555956.437942596152425, 162.0 ] ] } },
{ "type": "Feature", "properties": { "ELEVATION": "163 ft" }, "geometry": { "type": "LineString", "coordinates": [ [ 420848.041424069320783, 4555980.993998917751014, 163.0 ], [ 420857.086338310677093, 4555956.437942596152425, 163.0 ] ] } },
{ "type": "Feature", "properties": { "ELEVATION": "164 ft" }, "geometry": { "type": "LineString", "coordinates": [ [ 420848.041424069320783, 4555979.044313107617199, 164.0 ], [ 420856.368196084920783, 4555956.437942596152425, 164.0 ] ] } },
{ "type": "Feature", "properties": { "ELEVATION": "165 ft" }, "geometry": { "type": "LineString", "coordinates": [ [ 420848.041424069320783, 4555977.094651699997485, 165.0 ], [ 420855.650062846951187, 4555956.437942596152425, 165.0 ] ] } },
{ "type": "Feature", "properties": { "ELEVATION": "166 ft" }, "geometry": { "type": "LineString", "coordinates": [ [ 420848.041424069320783, 4555975.144965890794992, 166.0 ], [ 420854.931920621253084, 4555956.437942596152425, 166.0 ] ] } },
{ "type": "Feature", "properties": { "ELEVATION": "167 ft" }, "geometry": { "type": "LineString", "coordinates": [ [ 420848.041424069320783, 4555973.1952800815925, 167.0 ], [ 420854.213778395496774, 4555956.437942596152425, 167.0 ] ] } },
{ "type": "Feature", "properties": { "ELEVATION": "168 ft" }, "geometry": { "type": "LineString", "coordinates": [ [ 420848.041424069320783, 4555971.245618673041463, 168.0 ], [ 420853.495645157585386, 4555956.437942596152425, 168.0 ] ] } },
{ "type": "Feature", "properties": { "ELEVATION": "169 ft" }, "geometry": { "type": "LineString", "coordinates": [ [ 420848.041424069320783, 4555969.295932863838971, 169.0 ], [ 420852.777502931829076, 4555956.437942596152425, 169.0 ] ] } },
{ "type": "Feature", "properties": { "ELEVATION": "170 ft" }, "geometry": { "type": "LineString", "coordinates": [ [ 420848.041424069320783, 4555967.346247054636478, 170.0 ], [ 420852.059360706072766, 4555956.437942596152425, 170.0 ] ] } },
{ "type": "Feature", "properties": { "ELEVATION": "171 ft" }, "geometry": { "type": "LineString", "coordinates": [ [ 420848.041424069320783, 4555965.396585646085441, 171.0 ], [ 420851.341227468161378, 4555956.437942596152425, 171.0 ] ] } },
{ "type": "Feature", "properties": { "ELEVATION": "172 ft" }, "geometry": { "type": "LineString", "coordinates": [ [ 420848.041424069320783, 4555963.446899836882949, 172.0 ], [ 420850.623085242405068, 4555956.437942596152425, 172.0 ] ] } },
{ "type": "Feature", "properties": { "ELEVATION": "173 ft" }, "geometry": { "type": "LineString", "coordinates": [ [ 420848.041424069320783, 4555961.497214027680457, 173.0 ], [ 420849.904943016706966, 4555956.437942596152425, 173.0 ] ] } },
{ "type": "Feature", "properties": { "ELEVATION": "174 ft" }, "geometry": { "type": "LineString", "coordinates": [ [ 420848.041424069320783, 4555959.547552619129419, 174.0 ], [ 420849.18680977873737, 4555956.437942596152425, 174.0 ] ] } },
{ "type": "Feature", "properties": { "ELEVATION": "175 ft" }, "geometry": { "type": "LineString", "coordinates": [ [ 420848.041424069320783, 4555957.597866809926927, 175.0 ], [ 420848.46866755298106, 4555956.437942596152425, 175.0 ] ] } }
]
}
