{
"type": "FeatureCollection",
"name": "entities",
"features": [
{ "type": "Feature", "properties": { "Layer": "yollars", "SubClasses": "AcDbEntity:AcDbPolyline", "EntityHandle": "2E3" }, "geometry": { "type": "LineString", "coordinates": [ [ 29.0595076, 41.1357968 ], [ 29.0594944, 41.135781 ], [ 29.0594728, 41.1357691 ], [ 29.0594469, 41.1357665 ], [ 29.059425, 41.1357695 ], [ 29.0593991, 41.1357716 ], [ 29.0593721, 41.1357738 ], [ 29.0593441, 41.1357704 ], [ 29.0593245, 41.1357663 ], [ 29.0593018, 41.1357591 ], [ 29.0592863, 41.1357511 ], [ 29.0592719, 41.13574 ], [ 29.0592545, 41.1357273 ], [ 29.059237, 41.1357162 ], [ 29.0592196, 41.1357012 ], [ 29.0592053, 41.1356862 ], [ 29.059193, 41.1356743 ], [ 29.0591828, 41.135664 ], [ 29.0591695, 41.1356514 ], [ 29.0591604, 41.1356364 ], [ 29.0591564, 41.1356215 ], [ 29.0591566, 41.1356129 ], [ 29.0591393, 41.1355892 ], [ 29.0591406, 41.1355712 ], [ 29.059146, 41.1355556 ], [ 29.0591514, 41.1355399 ], [ 29.059162, 41.1355204 ], [ 29.0591962, 41.135473 ], [ 29.0592179, 41.1354644 ], [ 29.0592578, 41.1354572 ], [ 29.0592777, 41.1354561 ], [ 29.0593125, 41.1354602 ], [ 29.0593339, 41.1354704 ], [ 29.0593736, 41.1354782 ], [ 29.0594099, 41.1354911 ], [ 29.0594411, 41.1355151 ], [ 29.0594624, 41.1355304 ], [ 29.059482, 41.1355518 ], [ 29.059495, 41.1355745 ], [ 29.0595129, 41.1355985 ], [ 29.0595175, 41.1356186 ], [ 29.0595221, 41.1356449 ], [ 29.0595219, 41.1356612 ], [ 29.0595183, 41.13568 ], [ 29.0595147, 41.1357 ], [ 29.0595112, 41.1357176 ], [ 29.0595043, 41.1357313 ], [ 29.0594992, 41.1357413 ], [ 29.0594941, 41.13575 ], [ 29.0594728, 41.1357691 ] ] } },
{ "type": "Feature", "properties": { "Layer": "yollars", "SubClasses": "AcDbEntity:AcDbPolyline", "EntityHandle": "2E4" }, "geometry": { "type": "LineString", "coordinates": [ [ 29.0588275, 41.1362032 ], [ 29.0587822, 41.1361483 ], [ 29.0587151, 41.1360944 ], [ 29.0586664, 41.1360199 ], [ 29.0585929, 41.1359162 ], [ 29.0585537, 41.1358019 ], [ 29.0585676, 41.1357282 ], [ 29.0586283, 41.1356656 ], [ 29.0587318, 41.1355943 ], [ 29.0587658, 41.1356263 ] ] } },
{ "type": "Feature", "properties": { "Layer": "yollars", "SubClasses": "AcDbEntity:AcDbPolyline", "EntityHandle": "2E5" }, "geometry": { "type": "LineString", "coordinates": [ [ 29.0587318, 41.1355943 ], [ 29.0587575, 41.1355766 ], [ 29.0587387, 41.1355402 ], [ 29.0587141, 41.1355121 ], [ 29.0587182, 41.1354983 ], [ 29.0587159, 41.135476 ], [ 29.0586857, 41.1354461 ], [ 29.0586619, 41.1354133 ], [ 29.0586407, 41.1353678 ], [ 29.0586231, 41.13533 ], [ 29.0585918, 41.1353055 ], [ 29.0585452, 41.1353251 ] ] } },
{ "type": "Feature", "properties": { "Layer": "yollars", "SubClasses": "AcDbEntity:AcDbPolyline", "EntityHandle": "2E6" }, "geometry": { "type": "LineString", "coordinates": [ [ 29.0585918, 41.1353055 ], [ 29.0586614, 41.1353071 ], [ 29.0587478, 41.1353166 ], [ 29.058838, 41.1353096 ], [ 29.0589357, 41.1352919 ], [ 29.0589775, 41.1352872 ], [ 29.0590283, 41.135319 ], [ 29.0590886, 41.1353763 ], [ 29.059207, 41.1354687 ] ] } },
{ "type": "Feature", "properties": { "Layer": "yollars", "SubClasses": "AcDbEntity:AcDbPolyline", "EntityHandle": "2E7" }, "geometry": { "type": "LineString", "coordinates": [ [ 29.0590677, 41.1353564 ], [ 29.0589801, 41.135415 ], [ 29.0588491, 41.1355025 ], [ 29.0587575, 41.1355766 ] ] } },
{ "type": "Feature", "properties": { "Layer": "yollars", "SubClasses": "AcDbEntity:AcDbPolyline", "EntityHandle": "2E8" }, "geometry": { "type": "LineString", "coordinates": [ [ 29.0587575, 41.1355766 ], [ 29.0588569, 41.1355624 ], [ 29.058932, 41.1355745 ], [ 29.059065, 41.1355748 ], [ 29.0591399, 41.1355802 ] ] } },
{ "type": "Feature", "properties": { "Layer": "yollars", "SubClasses": "AcDbEntity:AcDbPolyline", "EntityHandle": "2E9" }, "geometry": { "type": "LineString", "coordinates": [ [ 29.0590677, 41.1353564 ], [ 29.0591748, 41.1353044 ], [ 29.0592504, 41.135254 ], [ 29.0593096, 41.1352145 ], [ 29.0593479, 41.1352023 ], [ 29.0593804, 41.1352267 ], [ 29.0594428, 41.1352734 ] ] } },
{ "type": "Feature", "properties": { "Layer": "yollars", "SubClasses": "AcDbEntity:AcDbPolyline", "EntityHandle": "2EA" }, "geometry": { "type": "LineString", "coordinates": [ [ 29.0593479, 41.1352023 ], [ 29.0594336, 41.1351459 ], [ 29.0595566, 41.1350648 ], [ 29.0596455, 41.1350137 ], [ 29.0596925, 41.1349649 ], [ 29.059727, 41.1349292 ], [ 29.0597627, 41.1348922 ], [ 29.0597316, 41.1348554 ] ] } },
{ "type": "Feature", "properties": { "Layer": "yollars", "SubClasses": "AcDbEntity:AcDbPolyline", "EntityHandle": "2EB" }, "geometry": { "type": "LineString", "coordinates": [ [ 29.0593479, 41.1352023 ], [ 29.0592626, 41.1351284 ], [ 29.0591117, 41.1349974 ], [ 29.0590238, 41.1349137 ], [ 29.0590775, 41.1348213 ], [ 29.0591405, 41.1347789 ], [ 29.0591951, 41.1347726 ], [ 29.0592684, 41.1347992 ], [ 29.0592875, 41.1348126 ], [ 29.0593098, 41.1348137 ], [ 29.0593266, 41.1348056 ], [ 29.0593681, 41.1347858 ], [ 29.0594105, 41.1347603 ], [ 29.0594469, 41.1347698 ], [ 29.0594725, 41.1347836 ], [ 29.0594932, 41.1347751 ], [ 29.0595088, 41.134762 ], [ 29.0595335, 41.1347487 ], [ 29.059558, 41.1347456 ], [ 29.0596127, 41.1347828 ] ] } },
{ "type": "Feature", "properties": { "Layer": "yollars", "SubClasses": "AcDbEntity:AcDbPolyline", "EntityHandle": "2EC" }, "geometry": { "type": "LineString", "coordinates": [ [ 29.0589775, 41.1352872 ], [ 29.0589107, 41.1352236 ], [ 29.0588488, 41.1351721 ], [ 29.0587423, 41.1350763 ], [ 29.0587284, 41.1350474 ], [ 29.058753, 41.1350276 ], [ 29.0587968, 41.1350156 ], [ 29.0588442, 41.1350532 ], [ 29.0589869, 41.1351668 ], [ 29.0590478, 41.1352301 ], [ 29.0590294, 41.1352656 ], [ 29.0589775, 41.1352872 ] ] } }
]
}
